{"type":"FeatureCollection","features":[{"type":"Feature","geometry":{"type":"Point","coordinates":[495680.95483782655,6526324.1650307905]},"properties":{"name":"EBCI","type":"airport","uuid":"airport-ebci"}},{"type":"Feature","geometry":{"type":"Point","coordinates":[318621.0893928889,6656550.5563666755]},"properties":{"name":"EBOS","type":"airport","uuid":"airport-ebos"}},{"type":"Feature","geometry":{"type":"Point","coordinates":[899517.145355047,6237504.770349013]},"properties":{"name":"EDSB","type":"airport","uuid":"airport-edsb"}},{"type":"Feature","geometry":{"type":"Point","coordinates":[871378.0209268888,6168506.204012601]},"properties":{"name":"EDTL","type":"airport","uuid":"airport-edtl"}},{"type":"Feature","geometry":{"type":"Point","coordinates":[-289739.8968702704,6348996.721603894]},"properties":{"name":"EGJB","type":"airport","uuid":"airport-egjb"}},{"type":"Feature","geometry":{"type":"Point","coordinates":[-244408.15737486808,6310238.134625485]},"properties":{"name":"EGJJ","type":"airport","uuid":"airport-egjj"}},{"type":"Feature","geometry":{"type":"Point","coordinates":[-51361.57616878539,6706196.524874811]},"properties":{"name":"EGLL","type":"airport","uuid":"airport-egll"}},{"type":"Feature","geometry":{"type":"Point","coordinates":[690675.5343665491,6381297.457852557]},"properties":{"name":"ELLX","type":"airport","uuid":"airport-ellx"}},{"type":"Feature","geometry":{"type":"Point","coordinates":[120812.56959147773,6425951.722631091]},"properties":{"name":"LFAB","type":"airport","uuid":"airport-lfab"}},{"type":"Feature","geometry":{"type":"Point","coordinates":[217227.617450763,6614368.4167384]},"properties":{"name":"LFAC","type":"airport","uuid":"airport-lfac"}},{"type":"Feature","geometry":{"type":"Point","coordinates":[158666.7624357304,6458108.226664136]},"properties":{"name":"LFAE","type":"airport","uuid":"airport-lfae"}},{"type":"Feature","geometry":{"type":"Point","coordinates":[337267.1041007622,6423600.591385258]},"properties":{"name":"LFAG","type":"airport","uuid":"airport-lfag"}},{"type":"Feature","geometry":{"type":"Point","coordinates":[334855.2436444028,6206745.884558086]},"properties":{"name":"LFAI","type":"airport","uuid":"airport-lfai"}},{"type":"Feature","geometry":{"type":"Point","coordinates":[-216.39272126981345,6055895.345548272]},"properties":{"name":"LFAL","type":"airport","uuid":"airport-lfal"}},{"type":"Feature","geometry":{"type":"Point","coordinates":[177214.38308257482,6519866.589552113]},"properties":{"name":"LFAM","type":"airport","uuid":"airport-lfam"}},{"type":"Feature","geometry":{"type":"Point","coordinates":[-42858.00395541033,6197960.367066044]},"properties":{"name":"LFAO","type":"airport","uuid":"airport-lfao"}},{"type":"Feature","geometry":{"type":"Point","coordinates":[485723.98298382206,6356893.643309582]},"properties":{"name":"LFAP","type":"airport","uuid":"airport-lfap"}},{"type":"Feature","geometry":{"type":"Point","coordinates":[299727.69803880836,6441081.941492069]},"properties":{"name":"LFAQ","type":"airport","uuid":"airport-lfaq"}},{"type":"Feature","geometry":{"type":"Point","coordinates":[181172.44034397198,6535898.444064435]},"properties":{"name":"LFAT","type":"airport","uuid":"airport-lfat"}},{"type":"Feature","geometry":{"type":"Point","coordinates":[-203714.66815169065,6381202.087308865]},"properties":{"name":"LFAU","type":"airport","uuid":"airport-lfau"}},{"type":"Feature","geometry":{"type":"Point","coordinates":[385783.91068232554,6502703.040376591]},"properties":{"name":"LFAV","type":"airport","uuid":"airport-lfav"}},{"type":"Feature","geometry":{"type":"Point","coordinates":[655579.0654521342,6344813.434800439]},"properties":{"name":"LFAW","type":"airport","uuid":"airport-lfaw"}},{"type":"Feature","geometry":{"type":"Point","coordinates":[59463.19225415441,6197119.671709489]},"properties":{"name":"LFAX","type":"airport","uuid":"airport-lfax"}},{"type":"Feature","geometry":{"type":"Point","coordinates":[265713.3782632273,6424320.303039944]},"properties":{"name":"LFAY","type":"airport","uuid":"airport-lfay"}},{"type":"Feature","geometry":{"type":"Point","coordinates":[65740.37465166401,5492520.739255043]},"properties":{"name":"LFBA","type":"airport","uuid":"airport-lfba"}},{"type":"Feature","geometry":{"type":"Point","coordinates":[-125945.6350002787,5548611.373401319]},"properties":{"name":"LFBC","type":"airport","uuid":"airport-lfbc"}},{"type":"Feature","geometry":{"type":"Point","coordinates":[-79624.35799796651,5594580.004503819]},"properties":{"name":"LFBD","type":"airport","uuid":"airport-lfbd"}},{"type":"Feature","geometry":{"type":"Point","coordinates":[57948.01029613486,5593925.981546993]},"properties":{"name":"LFBE","type":"airport","uuid":"airport-lfbe"}},{"type":"Feature","geometry":{"type":"Point","coordinates":[151085.25574901217,5395937.746867243]},"properties":{"name":"LFBF","type":"airport","uuid":"airport-lfbf"}},{"type":"Feature","geometry":{"type":"Point","coordinates":[-35343.93832686436,5725764.844274915]},"properties":{"name":"LFBG","type":"airport","uuid":"airport-lfbg"}},{"type":"Feature","geometry":{"type":"Point","coordinates":[-133057.71357873784,5809107.482671512]},"properties":{"name":"LFBH","type":"airport","uuid":"airport-lfbh"}},{"type":"Feature","geometry":{"type":"Point","coordinates":[34138.008098684666,5875001.534769924]},"properties":{"name":"LFBI","type":"airport","uuid":"airport-lfbi"}},{"type":"Feature","geometry":{"type":"Point","coordinates":[102290.24320670805,5764738.519605068]},"properties":{"name":"LFBJ","type":"airport","uuid":"airport-lfbj"}},{"type":"Feature","geometry":{"type":"Point","coordinates":[263023.21907988476,5816657.974346981]},"properties":{"name":"LFBK","type":"airport","uuid":"airport-lfbk"}},{"type":"Feature","geometry":{"type":"Point","coordinates":[131387.92121683873,5758075.553390648]},"properties":{"name":"LFBL","type":"airport","uuid":"airport-lfbl"}},{"type":"Feature","geometry":{"type":"Point","coordinates":[-56772.94030456952,5451739.634115044]},"properties":{"name":"LFBM","type":"airport","uuid":"airport-lfbm"}},{"type":"Feature","geometry":{"type":"Point","coordinates":[-43909.2928576297,5830703.983160691]},"properties":{"name":"LFBN","type":"airport","uuid":"airport-lfbn"}},{"type":"Feature","geometry":{"type":"Point","coordinates":[152260.3257405775,5409130.204585471]},"properties":{"name":"LFBO","type":"airport","uuid":"airport-lfbo"}},{"type":"Feature","geometry":{"type":"Point","coordinates":[-46599.54480721458,5369991.7503272835]},"properties":{"name":"LFBP","type":"airport","uuid":"airport-lfbp"}},{"type":"Feature","geometry":{"type":"Point","coordinates":[140664.51452753076,5380591.465151844]},"properties":{"name":"LFBR","type":"airport","uuid":"airport-lfbr"}},{"type":"Feature","geometry":{"type":"Point","coordinates":[-126038.37032052565,5522577.464422989]},"properties":{"name":"LFBS","type":"airport","uuid":"airport-lfbs"}},{"type":"Feature","geometry":{"type":"Point","coordinates":[-309.22080775909325,5340258.1202148935]},"properties":{"name":"LFBT","type":"airport","uuid":"airport-lfbt"}},{"type":"Feature","geometry":{"type":"Point","coordinates":[24397.552654273233,5737097.91397432]},"properties":{"name":"LFBU","type":"airport","uuid":"airport-lfbu"}},{"type":"Feature","geometry":{"type":"Point","coordinates":[90756.30707729387,5652667.548536976]},"properties":{"name":"LFBX","type":"airport","uuid":"airport-lfbx"}},{"type":"Feature","geometry":{"type":"Point","coordinates":[-118988.16682569907,5417465.380938458]},"properties":{"name":"LFBY","type":"airport","uuid":"airport-lfby"}},{"type":"Feature","geometry":{"type":"Point","coordinates":[-170442.4783147314,5383530.740129051]},"properties":{"name":"LFBZ","type":"airport","uuid":"airport-lfbz"}},{"type":"Feature","geometry":{"type":"Point","coordinates":[61287.595019933055,5906283.26842852]},"properties":{"name":"LFCA","type":"airport","uuid":"airport-lfca"}},{"type":"Feature","geometry":{"type":"Point","coordinates":[164598.20504808458,5519852.74498719]},"properties":{"name":"LFCC","type":"airport","uuid":"airport-lfcc"}},{"type":"Feature","geometry":{"type":"Point","coordinates":[217413.18085749922,5808526.93584811]},"properties":{"name":"LFCE","type":"airport","uuid":"airport-lfce"}},{"type":"Feature","geometry":{"type":"Point","coordinates":[199045.46487660907,5570109.7846257165]},"properties":{"name":"LFCF","type":"airport","uuid":"airport-lfcf"}},{"type":"Feature","geometry":{"type":"Point","coordinates":[122791.61368321671,5313155.778971411]},"properties":{"name":"LFCG","type":"airport","uuid":"airport-lfcg"}},{"type":"Feature","geometry":{"type":"Point","coordinates":[-123997.5439113964,5558290.175406953]},"properties":{"name":"LFCH","type":"airport","uuid":"airport-lfch"}},{"type":"Feature","geometry":{"type":"Point","coordinates":[235626.28643450982,5452040.012057907]},"properties":{"name":"LFCI","type":"airport","uuid":"airport-lfci"}},{"type":"Feature","geometry":{"type":"Point","coordinates":[-47094.35994379068,5697892.038518113]},"properties":{"name":"LFCJ","type":"airport","uuid":"airport-lfcj"}},{"type":"Feature","geometry":{"type":"Point","coordinates":[254983.50900022907,5396833.646612842]},"properties":{"name":"LFCK","type":"airport","uuid":"airport-lfck"}},{"type":"Feature","geometry":{"type":"Point","coordinates":[166824.59486395007,5401869.885824773]},"properties":{"name":"LFCL","type":"airport","uuid":"airport-lfcl"}},{"type":"Feature","geometry":{"type":"Point","coordinates":[354366.9838477593,5463765.896044195]},"properties":{"name":"LFCM","type":"airport","uuid":"airport-lfcm"}},{"type":"Feature","geometry":{"type":"Point","coordinates":[-3865.22917490789,5429746.5865070075]},"properties":{"name":"LFCN","type":"airport","uuid":"airport-lfcn"}},{"type":"Feature","geometry":{"type":"Point","coordinates":[-57174.89643257557,5711044.5153528955]},"properties":{"name":"LFCP","type":"airport","uuid":"airport-lfcp"}},{"type":"Feature","geometry":{"type":"Point","coordinates":[223504.79984827258,5429703.723482485]},"properties":{"name":"LFCQ","type":"airport","uuid":"airport-lfcq"}},{"type":"Feature","geometry":{"type":"Point","coordinates":[276443.34029246785,5528721.795840476]},"properties":{"name":"LFCR","type":"airport","uuid":"airport-lfcr"}},{"type":"Feature","geometry":{"type":"Point","coordinates":[-66482.44274612427,5574285.161374262]},"properties":{"name":"LFCS","type":"airport","uuid":"airport-lfcs"}},{"type":"Feature","geometry":{"type":"Point","coordinates":[-17007.14442675013,5935864.557195157]},"properties":{"name":"LFCT","type":"airport","uuid":"airport-lfct"}},{"type":"Feature","geometry":{"type":"Point","coordinates":[269918.8121708317,5706275.561512048]},"properties":{"name":"LFCU","type":"airport","uuid":"airport-lfcu"}},{"type":"Feature","geometry":{"type":"Point","coordinates":[225638.36157764882,5522707.1900134785]},"properties":{"name":"LFCV","type":"airport","uuid":"airport-lfcv"}},{"type":"Feature","geometry":{"type":"Point","coordinates":[84540.90699717453,5527423.420885683]},"properties":{"name":"LFCW","type":"airport","uuid":"airport-lfcw"}},{"type":"Feature","geometry":{"type":"Point","coordinates":[125450.81986370259,5478734.625506176]},"properties":{"name":"LFCX","type":"airport","uuid":"airport-lfcx"}},{"type":"Feature","geometry":{"type":"Point","coordinates":[-108598.37860707432,5721430.257728758]},"properties":{"name":"LFCY","type":"airport","uuid":"airport-lfcy"}},{"type":"Feature","geometry":{"type":"Point","coordinates":[-129656.253771307,5488037.946763802]},"properties":{"name":"LFCZ","type":"airport","uuid":"airport-lfcz"}},{"type":"Feature","geometry":{"type":"Point","coordinates":[-27520.620968478524,5420459.215085504]},"properties":{"name":"LFDA","type":"airport","uuid":"airport-lfda"}},{"type":"Feature","geometry":{"type":"Point","coordinates":[153280.69256202097,5469569.8822208]},"properties":{"name":"LFDB","type":"airport","uuid":"airport-lfdb"}},{"type":"Feature","geometry":{"type":"Point","coordinates":[230183.96929586906,5687974.17633538]},"properties":{"name":"LFDE","type":"airport","uuid":"airport-lfde"}},{"type":"Feature","geometry":{"type":"Point","coordinates":[19542.78597245547,5598330.399026562]},"properties":{"name":"LFDF","type":"airport","uuid":"airport-lfdf"}},{"type":"Feature","geometry":{"type":"Point","coordinates":[66791.69447596413,5417123.152210477]},"properties":{"name":"LFDH","type":"airport","uuid":"airport-lfdh"}},{"type":"Feature","geometry":{"type":"Point","coordinates":[-15275.476981218431,5619029.239944699]},"properties":{"name":"LFDI","type":"airport","uuid":"airport-lfdi"}},{"type":"Feature","geometry":{"type":"Point","coordinates":[188779.24129276487,5325765.54122801]},"properties":{"name":"LFDJ","type":"airport","uuid":"airport-lfdj"}},{"type":"Feature","geometry":{"type":"Point","coordinates":[-120657.95918759819,5699612.208974641]},"properties":{"name":"LFDK","type":"airport","uuid":"airport-lfdk"}},{"type":"Feature","geometry":{"type":"Point","coordinates":[22294.820239430624,5543017.186898101]},"properties":{"name":"LFDM","type":"airport","uuid":"airport-lfdm"}},{"type":"Feature","geometry":{"type":"Point","coordinates":[-109340.4467015346,5762650.191542709]},"properties":{"name":"LFDN","type":"airport","uuid":"airport-lfdn"}},{"type":"Feature","geometry":{"type":"Point","coordinates":[-145983.14334306793,5773585.659244682]},"properties":{"name":"LFDP","type":"airport","uuid":"airport-lfdp"}},{"type":"Feature","geometry":{"type":"Point","coordinates":[138438.12471166527,5588870.180117982]},"properties":{"name":"LFDS","type":"airport","uuid":"airport-lfds"}},{"type":"Feature","geometry":{"type":"Point","coordinates":[8627.260536478701,5344754.506680041]},"properties":{"name":"LFDT","type":"airport","uuid":"airport-lfdt"}},{"type":"Feature","geometry":{"type":"Point","coordinates":[112123.43397136642,5536776.4761863]},"properties":{"name":"LFDX","type":"airport","uuid":"airport-lfdx"}},{"type":"Feature","geometry":{"type":"Point","coordinates":[-356098.6822153718,5995467.0606663]},"properties":{"name":"LFEA","type":"airport","uuid":"airport-lfea"}},{"type":"Feature","geometry":{"type":"Point","coordinates":[-234141.93379102385,6180929.089411245]},"properties":{"name":"LFEB","type":"airport","uuid":"airport-lfeb"}},{"type":"Feature","geometry":{"type":"Point","coordinates":[-563678.5795419703,6184285.979718485]},"properties":{"name":"LFEC","type":"airport","uuid":"airport-lfec"}},{"type":"Feature","geometry":{"type":"Point","coordinates":[-325423.91624150815,6116333.50276229]},"properties":{"name":"LFED","type":"airport","uuid":"airport-lfed"}},{"type":"Feature","geometry":{"type":"Point","coordinates":[104763.97874670001,5997839.694776567]},"properties":{"name":"LFEF","type":"airport","uuid":"airport-lfef"}},{"type":"Feature","geometry":{"type":"Point","coordinates":[178234.8426702606,5876351.419379274]},"properties":{"name":"LFEG","type":"airport","uuid":"airport-lfeg"}},{"type":"Feature","geometry":{"type":"Point","coordinates":[266378.2957661517,6020712.349728752]},"properties":{"name":"LFEH","type":"airport","uuid":"airport-lfeh"}},{"type":"Feature","geometry":{"type":"Point","coordinates":[120874.35190886797,5880267.4346091]},"properties":{"name":"LFEL","type":"airport","uuid":"airport-lfel"}},{"type":"Feature","geometry":{"type":"Point","coordinates":[77830.90823504455,5985664.434179111]},"properties":{"name":"LFEN","type":"airport","uuid":"airport-lfen"}},{"type":"Feature","geometry":{"type":"Point","coordinates":[507647.80009810335,5978148.997312124]},"properties":{"name":"LFEP","type":"airport","uuid":"airport-lfep"}},{"type":"Feature","geometry":{"type":"Point","coordinates":[-345275.9848658843,6021006.0412912415]},"properties":{"name":"LFEQ","type":"airport","uuid":"airport-lfeq"}},{"type":"Feature","geometry":{"type":"Point","coordinates":[-226875.33757492751,6056860.081183704]},"properties":{"name":"LFER","type":"airport","uuid":"airport-lfer"}},{"type":"Feature","geometry":{"type":"Point","coordinates":[-407893.1984371006,6115778.406041617]},"properties":{"name":"LFES","type":"airport","uuid":"airport-lfes"}},{"type":"Feature","geometry":{"type":"Point","coordinates":[580067.2514311215,6031719.167395073]},"properties":{"name":"LFET","type":"airport","uuid":"airport-lfet"}},{"type":"Feature","geometry":{"type":"Point","coordinates":[625770.148662077,6012911.279091701]},"properties":{"name":"LFEV","type":"airport","uuid":"airport-lfev"}},{"type":"Feature","geometry":{"type":"Point","coordinates":[474715.7222275984,5981108.774682122]},"properties":{"name":"LFEW","type":"airport","uuid":"airport-lfew"}},{"type":"Feature","geometry":{"type":"Point","coordinates":[-266331.881722907,5896084.1720805755]},"properties":{"name":"LFEY","type":"airport","uuid":"airport-lfey"}},{"type":"Feature","geometry":{"type":"Point","coordinates":[139242.06788975812,6257487.150979458]},"properties":{"name":"LFFD","type":"airport","uuid":"airport-lffd"}},{"type":"Feature","geometry":{"type":"Point","coordinates":[-131233.3108129592,6008798.221787342]},"properties":{"name":"LFFI","type":"airport","uuid":"airport-lffi"}},{"type":"Feature","geometry":{"type":"Point","coordinates":[-88375.30685754886,5851276.6115798075]},"properties":{"name":"LFFK","type":"airport","uuid":"airport-lffk"}},{"type":"Feature","geometry":{"type":"Point","coordinates":[498958.6644779921,6178645.34149204]},"properties":{"name":"LFFN","type":"airport","uuid":"airport-lffn"}},{"type":"Feature","geometry":{"type":"Point","coordinates":[-232503.09443198147,5924228.259398696]},"properties":{"name":"LFFO","type":"airport","uuid":"airport-lffo"}},{"type":"Feature","geometry":{"type":"Point","coordinates":[243913.34223829195,6132911.920954727]},"properties":{"name":"LFFP","type":"airport","uuid":"airport-lffp"}},{"type":"Feature","geometry":{"type":"Point","coordinates":[229905.6705688858,5973779.296908914]},"properties":{"name":"LFFV","type":"airport","uuid":"airport-lffv"}},{"type":"Feature","geometry":{"type":"Point","coordinates":[553845.3887773119,5870773.143654733]},"properties":{"name":"LFFX","type":"airport","uuid":"airport-lffx"}},{"type":"Feature","geometry":{"type":"Point","coordinates":[418870.50619046774,6225703.139058437]},"properties":{"name":"LFFZ","type":"airport","uuid":"airport-lffz"}},{"type":"Feature","geometry":{"type":"Point","coordinates":[819218.7169182466,6125220.775679889]},"properties":{"name":"LFGA","type":"airport","uuid":"airport-lfga"}},{"type":"Feature","geometry":{"type":"Point","coordinates":[827072.863591166,6063248.73996128]},"properties":{"name":"LFGB","type":"airport","uuid":"airport-lfgb"}},{"type":"Feature","geometry":{"type":"Point","coordinates":[865787.3087226044,6199455.141685231]},"properties":{"name":"LFGC","type":"airport","uuid":"airport-lfgc"}},{"type":"Feature","geometry":{"type":"Point","coordinates":[545063.5178369536,5943751.828740575]},"properties":{"name":"LFGF","type":"airport","uuid":"airport-lfgf"}},{"type":"Feature","geometry":{"type":"Point","coordinates":[324867.3187875418,6001080.1310979035]},"properties":{"name":"LFGH","type":"airport","uuid":"airport-lfgh"}},{"type":"Feature","geometry":{"type":"Point","coordinates":[550691.2746940076,6005189.525719071]},"properties":{"name":"LFGI","type":"airport","uuid":"airport-lfgi"}},{"type":"Feature","geometry":{"type":"Point","coordinates":[605021.4015393611,5949059.291918684]},"properties":{"name":"LFGJ","type":"airport","uuid":"airport-lfgj"}},{"type":"Feature","geometry":{"type":"Point","coordinates":[377465.7781873636,6105930.545738642]},"properties":{"name":"LFGK","type":"airport","uuid":"airport-lfgk"}},{"type":"Feature","geometry":{"type":"Point","coordinates":[482322.6159426336,5877566.533525275]},"properties":{"name":"LFGM","type":"airport","uuid":"airport-lfgm"}},{"type":"Feature","geometry":{"type":"Point","coordinates":[361664.6567550355,6155143.780816161]},"properties":{"name":"LFGO","type":"airport","uuid":"airport-lfgo"}},{"type":"Feature","geometry":{"type":"Point","coordinates":[420447.4704658775,6103759.1674379585]},"properties":{"name":"LFGP","type":"airport","uuid":"airport-lfgp"}},{"type":"Feature","geometry":{"type":"Point","coordinates":[483466.763853423,6020960.2414057655]},"properties":{"name":"LFGQ","type":"airport","uuid":"airport-lfgq"}},{"type":"Feature","geometry":{"type":"Point","coordinates":[788141.994816377,6227202.8014994105]},"properties":{"name":"LFGT","type":"airport","uuid":"airport-lfgt"}},{"type":"Feature","geometry":{"type":"Point","coordinates":[791110.545492945,6296523.185027168]},"properties":{"name":"LFGU","type":"airport","uuid":"airport-lfgu"}},{"type":"Feature","geometry":{"type":"Point","coordinates":[609010.3190373727,6295625.4037655005]},"properties":{"name":"LFGW","type":"airport","uuid":"airport-lfgw"}},{"type":"Feature","geometry":{"type":"Point","coordinates":[780071.3317338646,6151287.430424492]},"properties":{"name":"LFGY","type":"airport","uuid":"airport-lfgy"}},{"type":"Feature","geometry":{"type":"Point","coordinates":[525087.7918115548,5527206.985334117]},"properties":{"name":"LFHD","type":"airport","uuid":"airport-lfhd"}},{"type":"Feature","geometry":{"type":"Point","coordinates":[567884.0134495747,5631716.393115097]},"properties":{"name":"LFHE","type":"airport","uuid":"airport-lfhe"}},{"type":"Feature","geometry":{"type":"Point","coordinates":[482322.6159426336,5534523.850382101]},"properties":{"name":"LFHF","type":"airport","uuid":"airport-lfhf"}},{"type":"Feature","geometry":{"type":"Point","coordinates":[504771.9847417823,5699303.339929846]},"properties":{"name":"LFHG","type":"airport","uuid":"airport-lfhg"}},{"type":"Feature","geometry":{"type":"Point","coordinates":[537425.7638853041,5694672.994440935]},"properties":{"name":"LFHH","type":"airport","uuid":"airport-lfhh"}},{"type":"Feature","geometry":{"type":"Point","coordinates":[740089.0194464523,5752260.723919597]},"properties":{"name":"LFHM","type":"airport","uuid":"airport-lfhm"}},{"type":"Feature","geometry":{"type":"Point","coordinates":[646178.6910520963,5800135.460039136]},"properties":{"name":"LFHN","type":"airport","uuid":"airport-lfhn"}},{"type":"Feature","geometry":{"type":"Point","coordinates":[486651.73817334167,5549305.433264201]},"properties":{"name":"LFHO","type":"airport","uuid":"airport-lfho"}},{"type":"Feature","geometry":{"type":"Point","coordinates":[418932.288507858,5634080.818400979]},"properties":{"name":"LFHP","type":"airport","uuid":"airport-lfhp"}},{"type":"Feature","geometry":{"type":"Point","coordinates":[333123.5761988712,5633336.439146778]},"properties":{"name":"LFHQ","type":"airport","uuid":"airport-lfhq"}},{"type":"Feature","geometry":{"type":"Point","coordinates":[589065.6697031534,5813351.098088416]},"properties":{"name":"LFHS","type":"airport","uuid":"airport-lfhs"}},{"type":"Feature","geometry":{"type":"Point","coordinates":[416891.49302080955,5703053.6752385795]},"properties":{"name":"LFHT","type":"airport","uuid":"airport-lfht"}},{"type":"Feature","geometry":{"type":"Point","coordinates":[677224.4601511093,5635307.061073825]},"properties":{"name":"LFHU","type":"airport","uuid":"airport-lfhu"}},{"type":"Feature","geometry":{"type":"Point","coordinates":[515965.80890474224,5767538.419184562]},"properties":{"name":"LFHV","type":"airport","uuid":"airport-lfhv"}},{"type":"Feature","geometry":{"type":"Point","coordinates":[399358.6422987882,5820994.746076573]},"properties":{"name":"LFHX","type":"airport","uuid":"airport-lfhx"}},{"type":"Feature","geometry":{"type":"Point","coordinates":[380898.2219197318,5866411.800468487]},"properties":{"name":"LFHY","type":"airport","uuid":"airport-lfhy"}},{"type":"Feature","geometry":{"type":"Point","coordinates":[305819.34795166244,5438057.471146909]},"properties":{"name":"LFIF","type":"airport","uuid":"airport-lfif"}},{"type":"Feature","geometry":{"type":"Point","coordinates":[280277.74015284213,5493081.1941925725]},"properties":{"name":"LFIG","type":"airport","uuid":"airport-lfig"}},{"type":"Feature","geometry":{"type":"Point","coordinates":[29592.36945838367,5659296.122807859]},"properties":{"name":"LFIK","type":"airport","uuid":"airport-lfik"}},{"type":"Feature","geometry":{"type":"Point","coordinates":[-105784.4383343858,5452254.677985188]},"properties":{"name":"LFIL","type":"airport","uuid":"airport-lfil"}},{"type":"Feature","geometry":{"type":"Point","coordinates":[68925.34897158266,5328348.78352728]},"properties":{"name":"LFIM","type":"airport","uuid":"airport-lfim"}},{"type":"Feature","geometry":{"type":"Point","coordinates":[48300.290171970366,5281115.531211184]},"properties":{"name":"LFIP","type":"airport","uuid":"airport-lfip"}},{"type":"Feature","geometry":{"type":"Point","coordinates":[220288.90344757805,5385363.098516794]},"properties":{"name":"LFIR","type":"airport","uuid":"airport-lfir"}},{"type":"Feature","geometry":{"type":"Point","coordinates":[193108.36352347297,6600388.607691088]},"properties":{"name":"LFIS","type":"airport","uuid":"airport-lfis"}},{"type":"Feature","geometry":{"type":"Point","coordinates":[191933.38629814997,5405456.603374279]},"properties":{"name":"LFIT","type":"airport","uuid":"airport-lfit"}},{"type":"Feature","geometry":{"type":"Point","coordinates":[-124355.65252886222,5681467.373502699]},"properties":{"name":"LFIV","type":"airport","uuid":"airport-lfiv"}},{"type":"Feature","geometry":{"type":"Point","coordinates":[-58380.826660755265,5774786.704659228]},"properties":{"name":"LFIY","type":"airport","uuid":"airport-lfiy"}},{"type":"Feature","geometry":{"type":"Point","coordinates":[562163.3975839507,6122118.519445825]},"properties":{"name":"LFJA","type":"airport","uuid":"airport-lfja"}},{"type":"Feature","geometry":{"type":"Point","coordinates":[-77645.34482830831,5926264.6477503255]},"properties":{"name":"LFJB","type":"airport","uuid":"airport-lfjb"}},{"type":"Feature","geometry":{"type":"Point","coordinates":[695375.7834107297,6271185.719094783]},"properties":{"name":"LFJL","type":"airport","uuid":"airport-lfjl"}},{"type":"Feature","geometry":{"type":"Point","coordinates":[-34756.387870041304,6034010.018994913]},"properties":{"name":"LFJR","type":"airport","uuid":"airport-lfjr"}},{"type":"Feature","geometry":{"type":"Point","coordinates":[365468.1036125531,6333604.671545742]},"properties":{"name":"LFJS","type":"airport","uuid":"airport-lfjs"}},{"type":"Feature","geometry":{"type":"Point","coordinates":[79346.05927098331,5966592.305941817]},"properties":{"name":"LFJT","type":"airport","uuid":"airport-lfjt"}},{"type":"Feature","geometry":{"type":"Point","coordinates":[327804.94738333405,5895227.221786703]},"properties":{"name":"LFJU","type":"airport","uuid":"airport-lfju"}},{"type":"Feature","geometry":{"type":"Point","coordinates":[654125.6658115052,6279198.797235928]},"properties":{"name":"LFJY","type":"airport","uuid":"airport-lfjy"}},{"type":"Feature","geometry":{"type":"Point","coordinates":[704528.6883983181,5720678.590511169]},"properties":{"name":"LFKA","type":"airport","uuid":"airport-lfka"}},{"type":"Feature","geometry":{"type":"Point","coordinates":[1055834.417171343,5243726.12633577]},"properties":{"name":"LFKB","type":"airport","uuid":"airport-lfkb"}},{"type":"Feature","geometry":{"type":"Point","coordinates":[978838.4978834905,5239865.221629675]},"properties":{"name":"LFKC","type":"airport","uuid":"airport-lfkc"}},{"type":"Feature","geometry":{"type":"Point","coordinates":[757096.1947952833,5661580.046185847]},"properties":{"name":"LFKD","type":"airport","uuid":"airport-lfkd"}},{"type":"Feature","geometry":{"type":"Point","coordinates":[591013.7607920357,5625676.833803877]},"properties":{"name":"LFKE","type":"airport","uuid":"airport-lfke"}},{"type":"Feature","geometry":{"type":"Point","coordinates":[1012636.3321715595,5086703.9090886]},"properties":{"name":"LFKF","type":"airport","uuid":"airport-lfkf"}},{"type":"Feature","geometry":{"type":"Point","coordinates":[1046434.1355375475,5169138.366624508]},"properties":{"name":"LFKG","type":"airport","uuid":"airport-lfkg"}},{"type":"Feature","geometry":{"type":"Point","coordinates":[632232.8017000806,5703097.672247934]},"properties":{"name":"LFKH","type":"airport","uuid":"airport-lfkh"}},{"type":"Feature","geometry":{"type":"Point","coordinates":[979889.8177077906,5149585.178285258]},"properties":{"name":"LFKJ","type":"airport","uuid":"airport-lfkj"}},{"type":"Feature","geometry":{"type":"Point","coordinates":[479230.37694296194,5717495.5733096255]},"properties":{"name":"LFKM","type":"airport","uuid":"airport-lfkm"}},{"type":"Feature","geometry":{"type":"Point","coordinates":[990063.1822830647,5110225.76585086]},"properties":{"name":"LFKO","type":"airport","uuid":"airport-lfko"}},{"type":"Feature","geometry":{"type":"Point","coordinates":[698839.0255355508,5680752.028506743]},"properties":{"name":"LFKR","type":"airport","uuid":"airport-lfkr"}},{"type":"Feature","geometry":{"type":"Point","coordinates":[1046990.7329915139,5149959.226433858]},"properties":{"name":"LFKS","type":"airport","uuid":"airport-lfks"}},{"type":"Feature","geometry":{"type":"Point","coordinates":[1023304.4191171674,5204561.313925857]},"properties":{"name":"LFKT","type":"airport","uuid":"airport-lfkt"}},{"type":"Feature","geometry":{"type":"Point","coordinates":[732203.9197706761,5685903.743660018]},"properties":{"name":"LFKX","type":"airport","uuid":"airport-lfkx"}},{"type":"Feature","geometry":{"type":"Point","coordinates":[389247.1837292274,6081337.3600981515]},"properties":{"name":"LFLA","type":"airport","uuid":"airport-lfla"}},{"type":"Feature","geometry":{"type":"Point","coordinates":[654558.574942368,5722712.823640762]},"properties":{"name":"LFLB","type":"airport","uuid":"airport-lflb"}},{"type":"Feature","geometry":{"type":"Point","coordinates":[352047.88963372767,5746139.332177908]},"properties":{"name":"LFLC","type":"airport","uuid":"airport-lflc"}},{"type":"Feature","geometry":{"type":"Point","coordinates":[263827.1931800584,5952009.188945099]},"properties":{"name":"LFLD","type":"airport","uuid":"airport-lfld"}},{"type":"Feature","geometry":{"type":"Point","coordinates":[665226.6618879758,5710205.480677036]},"properties":{"name":"LFLE","type":"airport","uuid":"airport-lfle"}},{"type":"Feature","geometry":{"type":"Point","coordinates":[651064.37981469,5655915.487251377]},"properties":{"name":"LFLG","type":"airport","uuid":"airport-lflg"}},{"type":"Feature","geometry":{"type":"Point","coordinates":[536219.7408908821,5914098.489170808]},"properties":{"name":"LFLH","type":"airport","uuid":"airport-lflh"}},{"type":"Feature","geometry":{"type":"Point","coordinates":[697787.6129450082,5811161.897475943]},"properties":{"name":"LFLI","type":"airport","uuid":"airport-lfli"}},{"type":"Feature","geometry":{"type":"Point","coordinates":[738326.5226863871,5684054.009305587]},"properties":{"name":"LFLJ","type":"airport","uuid":"airport-lflj"}},{"type":"Feature","geometry":{"type":"Point","coordinates":[565626.6706308526,5736477.896910781]},"properties":{"name":"LFLL","type":"airport","uuid":"airport-lfll"}},{"type":"Feature","geometry":{"type":"Point","coordinates":[533869.662751913,5827884.032681295]},"properties":{"name":"LFLM","type":"airport","uuid":"airport-lflm"}},{"type":"Feature","geometry":{"type":"Point","coordinates":[447628.01038998255,5845759.105659328]},"properties":{"name":"LFLN","type":"airport","uuid":"airport-lfln"}},{"type":"Feature","geometry":{"type":"Point","coordinates":[445247.0101702376,5788810.933685897]},"properties":{"name":"LFLO","type":"airport","uuid":"airport-lflo"}},{"type":"Feature","geometry":{"type":"Point","coordinates":[679760.1016968146,5769272.044002015]},"properties":{"name":"LFLP","type":"airport","uuid":"airport-lflp"}},{"type":"Feature","geometry":{"type":"Point","coordinates":[537085.5900746882,5661755.749901358]},"properties":{"name":"LFLR","type":"airport","uuid":"airport-lflr"}},{"type":"Feature","geometry":{"type":"Point","coordinates":[593642.1067359071,5678859.435011581]},"properties":{"name":"LFLS","type":"airport","uuid":"airport-lfls"}},{"type":"Feature","geometry":{"type":"Point","coordinates":[286152.96642234566,5837063.460213256]},"properties":{"name":"LFLT","type":"airport","uuid":"airport-lflt"}},{"type":"Feature","geometry":{"type":"Point","coordinates":[553103.2279166094,5608237.262540381]},"properties":{"name":"LFLU","type":"airport","uuid":"airport-lflu"}},{"type":"Feature","geometry":{"type":"Point","coordinates":[378950.1308308496,5807901.774209199]},"properties":{"name":"LFLV","type":"airport","uuid":"airport-lflv"}},{"type":"Feature","geometry":{"type":"Point","coordinates":[269022.1336724919,5605399.367035928]},"properties":{"name":"LFLW","type":"airport","uuid":"airport-lflw"}},{"type":"Feature","geometry":{"type":"Point","coordinates":[191593.1815654534,5919297.595281032]},"properties":{"name":"LFLX","type":"airport","uuid":"airport-lflx"}},{"type":"Feature","geometry":{"type":"Point","coordinates":[549794.5961956679,5737097.91397432]},"properties":{"name":"LFLY","type":"airport","uuid":"airport-lfly"}},{"type":"Feature","geometry":{"type":"Point","coordinates":[597476.4138300391,5389199.261756234]},"properties":{"name":"LFMA","type":"airport","uuid":"airport-lfma"}},{"type":"Feature","geometry":{"type":"Point","coordinates":[710991.3414363215,5370714.995318055]},"properties":{"name":"LFMC","type":"airport","uuid":"airport-lfmc"}},{"type":"Feature","geometry":{"type":"Point","coordinates":[774134.3231469707,5395511.075120613]},"properties":{"name":"LFMD","type":"airport","uuid":"airport-lfmd"}},{"type":"Feature","geometry":{"type":"Point","coordinates":[491413.707690751,5442730.280560687]},"properties":{"name":"LFME","type":"airport","uuid":"airport-lfme"}},{"type":"Feature","geometry":{"type":"Point","coordinates":[746026.1517216691,5404986.9148318535]},"properties":{"name":"LFMF","type":"airport","uuid":"airport-lfmf"}},{"type":"Feature","geometry":{"type":"Point","coordinates":[221433.05135836746,5374034.373829517]},"properties":{"name":"LFMG","type":"airport","uuid":"airport-lfmg"}},{"type":"Feature","geometry":{"type":"Point","coordinates":[478364.5586812364,5706010.8266783375]},"properties":{"name":"LFMH","type":"airport","uuid":"airport-lfmh"}},{"type":"Feature","geometry":{"type":"Point","coordinates":[548155.7568366254,5391842.876253425]},"properties":{"name":"LFMI","type":"airport","uuid":"airport-lfmi"}},{"type":"Feature","geometry":{"type":"Point","coordinates":[256993.38240650162,5344881.710825215]},"properties":{"name":"LFMK","type":"airport","uuid":"airport-lfmk"}},{"type":"Feature","geometry":{"type":"Point","coordinates":[580531.1135648409,5378674.965128225]},"properties":{"name":"LFML","type":"airport","uuid":"airport-lfml"}},{"type":"Feature","geometry":{"type":"Point","coordinates":[803170.0951513881,5413788.422383702]},"properties":{"name":"LFMN","type":"airport","uuid":"airport-lfmn"}},{"type":"Feature","geometry":{"type":"Point","coordinates":[541971.2788372821,5487133.128650702]},"properties":{"name":"LFMO","type":"airport","uuid":"airport-lfmo"}},{"type":"Feature","geometry":{"type":"Point","coordinates":[319455.98557383846,5272606.782935719]},"properties":{"name":"LFMP","type":"airport","uuid":"airport-lfmp"}},{"type":"Feature","geometry":{"type":"Point","coordinates":[644106.9116401104,5350441.737220189]},"properties":{"name":"LFMQ","type":"airport","uuid":"airport-lfmq"}},{"type":"Feature","geometry":{"type":"Point","coordinates":[735729.0988232914,5525562.528620187]},"properties":{"name":"LFMR","type":"airport","uuid":"airport-lfmr"}},{"type":"Feature","geometry":{"type":"Point","coordinates":[461202.8656947684,5476711.628207274]},"properties":{"name":"LFMS","type":"airport","uuid":"airport-lfms"}},{"type":"Feature","geometry":{"type":"Point","coordinates":[440979.79394524294,5401186.765680658]},"properties":{"name":"LFMT","type":"airport","uuid":"airport-lfmt"}},{"type":"Feature","geometry":{"type":"Point","coordinates":[373291.2972826158,5361316.604744163]},"properties":{"name":"LFMU","type":"airport","uuid":"airport-lfmu"}},{"type":"Feature","geometry":{"type":"Point","coordinates":[545681.8976083103,5451010.020122246]},"properties":{"name":"LFMV","type":"airport","uuid":"airport-lfmv"}},{"type":"Feature","geometry":{"type":"Point","coordinates":[213733.39140100445,5359446.616937912]},"properties":{"name":"LFMW","type":"airport","uuid":"airport-lfmw"}},{"type":"Feature","geometry":{"type":"Point","coordinates":[568657.0036248108,5404218.245282233]},"properties":{"name":"LFMY","type":"airport","uuid":"airport-lfmy"}},{"type":"Feature","geometry":{"type":"Point","coordinates":[304211.4306733959,5338646.636229911]},"properties":{"name":"LFMZ","type":"airport","uuid":"airport-lfmz"}},{"type":"Feature","geometry":{"type":"Point","coordinates":[671998.6903441423,5535953.32511206]},"properties":{"name":"LFNA","type":"airport","uuid":"airport-lfna"}},{"type":"Feature","geometry":{"type":"Point","coordinates":[392679.4728511917,5543797.5766884005]},"properties":{"name":"LFNB","type":"airport","uuid":"airport-lfnb"}},{"type":"Feature","geometry":{"type":"Point","coordinates":[734615.9039153586,5574502.677058268]},"properties":{"name":"LFNC","type":"airport","uuid":"airport-lfnc"}},{"type":"Feature","geometry":{"type":"Point","coordinates":[558019.8696820597,5412591.560049658]},"properties":{"name":"LFNE","type":"airport","uuid":"airport-lfne"}},{"type":"Feature","geometry":{"type":"Point","coordinates":[643766.830595737,5424737.971317758]},"properties":{"name":"LFNF","type":"airport","uuid":"airport-lfnf"}},{"type":"Feature","geometry":{"type":"Point","coordinates":[453101.2496093993,5405328.523545454]},"properties":{"name":"LFNG","type":"airport","uuid":"airport-lfng"}},{"type":"Feature","geometry":{"type":"Point","coordinates":[566616.1772156816,5468924.770615367]},"properties":{"name":"LFNH","type":"airport","uuid":"airport-lfnh"}},{"type":"Feature","geometry":{"type":"Point","coordinates":[420973.2386053103,5434586.551174145]},"properties":{"name":"LFNL","type":"airport","uuid":"airport-lfnl"}},{"type":"Feature","geometry":{"type":"Point","coordinates":[576356.663582174,5394018.028130059]},"properties":{"name":"LFNR","type":"airport","uuid":"airport-lfnr"}},{"type":"Feature","geometry":{"type":"Point","coordinates":[660031.8450838655,5509912.256770495]},"properties":{"name":"LFNS","type":"airport","uuid":"airport-lfns"}},{"type":"Feature","geometry":{"type":"Point","coordinates":[529262.2727163024,5464840.34554854]},"properties":{"name":"LFNT","type":"airport","uuid":"airport-lfnt"}},{"type":"Feature","geometry":{"type":"Point","coordinates":[489125.4737133338,5478390.28240872]},"properties":{"name":"LFNU","type":"airport","uuid":"airport-lfnu"}},{"type":"Feature","geometry":{"type":"Point","coordinates":[546238.4950622767,5517561.0210457705]},"properties":{"name":"LFNV","type":"airport","uuid":"airport-lfnv"}},{"type":"Feature","geometry":{"type":"Point","coordinates":[228730.60057732047,5298325.165774222]},"properties":{"name":"LFNW","type":"airport","uuid":"airport-lfnw"}},{"type":"Feature","geometry":{"type":"Point","coordinates":[293759.7673711386,5951373.722565824]},"properties":{"name":"LFOA","type":"airport","uuid":"airport-lfoa"}},{"type":"Feature","geometry":{"type":"Point","coordinates":[235193.34638156634,6352325.767831668]},"properties":{"name":"LFOB","type":"airport","uuid":"airport-lfob"}},{"type":"Feature","geometry":{"type":"Point","coordinates":[153589.94429186083,6116472.386651613]},"properties":{"name":"LFOC","type":"airport","uuid":"airport-lfoc"}},{"type":"Feature","geometry":{"type":"Point","coordinates":[-12647.10011526614,5984069.743031072]},"properties":{"name":"LFOD","type":"airport","uuid":"airport-lfod"}},{"type":"Feature","geometry":{"type":"Point","coordinates":[135809.747845713,6279717.448903686]},"properties":{"name":"LFOE","type":"airport","uuid":"airport-lfoe"}},{"type":"Feature","geometry":{"type":"Point","coordinates":[12059.549658443084,6181488.619167387]},"properties":{"name":"LFOF","type":"airport","uuid":"airport-lfof"}},{"type":"Feature","geometry":{"type":"Point","coordinates":[-66204.1440191411,6232500.652586969]},"properties":{"name":"LFOG","type":"airport","uuid":"airport-lfog"}},{"type":"Feature","geometry":{"type":"Point","coordinates":[9802.330528044033,6365941.522803192]},"properties":{"name":"LFOH","type":"airport","uuid":"airport-lfoh"}},{"type":"Feature","geometry":{"type":"Point","coordinates":[203838.3255527135,6470942.7048126655]},"properties":{"name":"LFOI","type":"airport","uuid":"airport-lfoi"}},{"type":"Feature","geometry":{"type":"Point","coordinates":[195984.17887979408,6104821.733412828]},"properties":{"name":"LFOJ","type":"airport","uuid":"airport-lfoj"}},{"type":"Feature","geometry":{"type":"Point","coordinates":[468222.1161867383,6236487.860999902]},"properties":{"name":"LFOK","type":"airport","uuid":"airport-lfok"}},{"type":"Feature","geometry":{"type":"Point","coordinates":[73223.48727735328,6234048.470161072]},"properties":{"name":"LFOL","type":"airport","uuid":"airport-lfol"}},{"type":"Feature","geometry":{"type":"Point","coordinates":[-167504.88064102002,6309433.402295066]},"properties":{"name":"LFOM","type":"airport","uuid":"airport-lfom"}},{"type":"Feature","geometry":{"type":"Point","coordinates":[-192026.12161839692,5856887.650540002]},"properties":{"name":"LFOO","type":"airport","uuid":"airport-lfoo"}},{"type":"Feature","geometry":{"type":"Point","coordinates":[131789.90826692557,6341439.620157285]},"properties":{"name":"LFOP","type":"airport","uuid":"airport-lfop"}},{"type":"Feature","geometry":{"type":"Point","coordinates":[134232.69080406084,6053736.417547485]},"properties":{"name":"LFOQ","type":"airport","uuid":"airport-lfoq"}},{"type":"Feature","geometry":{"type":"Point","coordinates":[169494.37639606127,6183383.359113878]},"properties":{"name":"LFOR","type":"airport","uuid":"airport-lfor"}},{"type":"Feature","geometry":{"type":"Point","coordinates":[72976.14155322679,6417797.573323656]},"properties":{"name":"LFOS","type":"airport","uuid":"airport-lfos"}},{"type":"Feature","geometry":{"type":"Point","coordinates":[80490.20718177276,6012865.522011782]},"properties":{"name":"LFOT","type":"airport","uuid":"airport-lfot"}},{"type":"Feature","geometry":{"type":"Point","coordinates":[-97651.90016824087,5955459.672641637]},"properties":{"name":"LFOU","type":"airport","uuid":"airport-lfou"}},{"type":"Feature","geometry":{"type":"Point","coordinates":[-82685.64399478154,6112217.09337616]},"properties":{"name":"LFOV","type":"airport","uuid":"airport-lfov"}},{"type":"Feature","geometry":{"type":"Point","coordinates":[356809.89007321774,6414490.171994784]},"properties":{"name":"LFOW","type":"airport","uuid":"airport-lfow"}},{"type":"Feature","geometry":{"type":"Point","coordinates":[230864.255072939,6170493.922143123]},"properties":{"name":"LFOX","type":"airport","uuid":"airport-lfox"}},{"type":"Feature","geometry":{"type":"Point","coordinates":[240913.96224719033,6089819.3958107745]},"properties":{"name":"LFOZ","type":"airport","uuid":"airport-lfoz"}},{"type":"Feature","geometry":{"type":"Point","coordinates":[257333.58713919815,6302904.910665132]},"properties":{"name":"LFPA","type":"airport","uuid":"airport-lfpa"}},{"type":"Feature","geometry":{"type":"Point","coordinates":[271774.16793946706,6269678.250775776]},"properties":{"name":"LFPB","type":"airport","uuid":"airport-lfpb"}},{"type":"Feature","geometry":{"type":"Point","coordinates":[62957.387381832166,6292271.382287179]},"properties":{"name":"LFPD","type":"airport","uuid":"airport-lfpd"}},{"type":"Feature","geometry":{"type":"Point","coordinates":[283617.32487664034,6276511.165597227]},"properties":{"name":"LFPG","type":"airport","uuid":"airport-lfpg"}},{"type":"Feature","geometry":{"type":"Point","coordinates":[335566.3587360064,6247333.342517871]},"properties":{"name":"LFPK","type":"airport","uuid":"airport-lfpk"}},{"type":"Feature","geometry":{"type":"Point","coordinates":[291966.28668613586,6244702.824617054]},"properties":{"name":"LFPL","type":"airport","uuid":"airport-lfpl"}},{"type":"Feature","geometry":{"type":"Point","coordinates":[297315.74481620657,6208148.769824846]},"properties":{"name":"LFPM","type":"airport","uuid":"airport-lfpm"}},{"type":"Feature","geometry":{"type":"Point","coordinates":[235007.7829748301,6232500.652586969]},"properties":{"name":"LFPN","type":"airport","uuid":"airport-lfpn"}},{"type":"Feature","geometry":{"type":"Point","coordinates":[264878.4820822777,6228046.4780796105]},"properties":{"name":"LFPO","type":"airport","uuid":"airport-lfpo"}},{"type":"Feature","geometry":{"type":"Point","coordinates":[304675.200040873,6293405.0813256465]},"properties":{"name":"LFPP","type":"airport","uuid":"airport-lfpp"}},{"type":"Feature","geometry":{"type":"Point","coordinates":[323197.52642564266,6225187.784994954]},"properties":{"name":"LFPQ","type":"airport","uuid":"airport-lfpq"}},{"type":"Feature","geometry":{"type":"Point","coordinates":[227184.46561644424,6291279.697656314]},"properties":{"name":"LFPT","type":"airport","uuid":"airport-lfpt"}},{"type":"Feature","geometry":{"type":"Point","coordinates":[311447.1975749587,6163745.737573673]},"properties":{"name":"LFPU","type":"airport","uuid":"airport-lfpu"}},{"type":"Feature","geometry":{"type":"Point","coordinates":[243944.29524114862,6236628.762672578]},"properties":{"name":"LFPV","type":"airport","uuid":"airport-lfpv"}},{"type":"Feature","geometry":{"type":"Point","coordinates":[230802.34906722564,6242730.601060117]},"properties":{"name":"LFPZ","type":"airport","uuid":"airport-lfpz"}},{"type":"Feature","geometry":{"type":"Point","coordinates":[462718.04765278794,6310332.702702552]},"properties":{"name":"LFQA","type":"airport","uuid":"airport-lfqa"}},{"type":"Feature","geometry":{"type":"Point","coordinates":[447133.3189417296,6160536.566489911]},"properties":{"name":"LFQB","type":"airport","uuid":"airport-lfqb"}},{"type":"Feature","geometry":{"type":"Point","coordinates":[728276.8155121356,6206184.879407409]},"properties":{"name":"LFQC","type":"airport","uuid":"airport-lfqc"}},{"type":"Feature","geometry":{"type":"Point","coordinates":[631861.7676528505,6313836.066815201]},"properties":{"name":"LFQE","type":"airport","uuid":"airport-lfqe"}},{"type":"Feature","geometry":{"type":"Point","coordinates":[474344.6881803683,5937359.899297786]},"properties":{"name":"LFQF","type":"airport","uuid":"airport-lfqf"}},{"type":"Feature","geometry":{"type":"Point","coordinates":[346296.32076524704,5942663.472252073]},"properties":{"name":"LFQG","type":"airport","uuid":"airport-lfqg"}},{"type":"Feature","geometry":{"type":"Point","coordinates":[448617.54789689253,6499845.87091035]},"properties":{"name":"LFQJ","type":"airport","uuid":"airport-lfqj"}},{"type":"Feature","geometry":{"type":"Point","coordinates":[484549.00575849914,6258851.362193221]},"properties":{"name":"LFQK","type":"airport","uuid":"airport-lfqk"}},{"type":"Feature","geometry":{"type":"Point","coordinates":[676884.3791067359,5975645.234929629]},"properties":{"name":"LFQM","type":"airport","uuid":"airport-lfqm"}},{"type":"Feature","geometry":{"type":"Point","coordinates":[248737.15591725308,6573427.796588894]},"properties":{"name":"LFQN","type":"airport","uuid":"airport-lfqn"}},{"type":"Feature","geometry":{"type":"Point","coordinates":[802056.931165536,6235596.570229255]},"properties":{"name":"LFQP","type":"airport","uuid":"airport-lfqp"}},{"type":"Feature","geometry":{"type":"Point","coordinates":[343637.0218185188,6544412.821804534]},"properties":{"name":"LFQQ","type":"airport","uuid":"airport-lfqq"}},{"type":"Feature","geometry":{"type":"Point","coordinates":[293883.4556942422,6553764.620435137]},"properties":{"name":"LFQT","type":"airport","uuid":"airport-lfqt"}},{"type":"Feature","geometry":{"type":"Point","coordinates":[787740.00776629,6266522.859156187]},"properties":{"name":"LFQU","type":"airport","uuid":"airport-lfqu"}},{"type":"Feature","geometry":{"type":"Point","coordinates":[516831.6580885484,6409124.502032539]},"properties":{"name":"LFQV","type":"airport","uuid":"airport-lfqv"}},{"type":"Feature","geometry":{"type":"Point","coordinates":[690644.7050520156,6046941.7625389]},"properties":{"name":"LFQW","type":"airport","uuid":"airport-lfqw"}},{"type":"Feature","geometry":{"type":"Point","coordinates":[826639.9235382226,6233110.299812791]},"properties":{"name":"LFQY","type":"airport","uuid":"airport-lfqy"}},{"type":"Feature","geometry":{"type":"Point","coordinates":[-492217.7127130054,6181581.761153353]},"properties":{"name":"LFRB","type":"airport","uuid":"airport-lfrb"}},{"type":"Feature","geometry":{"type":"Point","coordinates":[-164227.17100085443,6386024.38654835]},"properties":{"name":"LFRC","type":"airport","uuid":"airport-lfrc"}},{"type":"Feature","geometry":{"type":"Point","coordinates":[-231544.54085000904,6205203.174379285]},"properties":{"name":"LFRD","type":"airport","uuid":"airport-lfrd"}},{"type":"Feature","geometry":{"type":"Point","coordinates":[-261260.59863149637,5989264.968601636]},"properties":{"name":"LFRE","type":"airport","uuid":"airport-lfre"}},{"type":"Feature","geometry":{"type":"Point","coordinates":[-174091.3147683695,6254994.591273478]},"properties":{"name":"LFRF","type":"airport","uuid":"airport-lfrf"}},{"type":"Feature","geometry":{"type":"Point","coordinates":[17811.087604842996,6336737.746084301]},"properties":{"name":"LFRG","type":"airport","uuid":"airport-lfrg"}},{"type":"Feature","geometry":{"type":"Point","coordinates":[-382939.01740678033,6067111.90097397]},"properties":{"name":"LFRH","type":"airport","uuid":"airport-lfrh"}},{"type":"Feature","geometry":{"type":"Point","coordinates":[-153806.46070145376,5893648.976645813]},"properties":{"name":"LFRI","type":"airport","uuid":"airport-lfri"}},{"type":"Feature","geometry":{"type":"Point","coordinates":[-462161.4501988216,6195531.9648205675]},"properties":{"name":"LFRJ","type":"airport","uuid":"airport-lfrj"}},{"type":"Feature","geometry":{"type":"Point","coordinates":[-50093.770856973104,6304323.680838794]},"properties":{"name":"LFRK","type":"airport","uuid":"airport-lfrk"}},{"type":"Feature","geometry":{"type":"Point","coordinates":[-494660.4952501407,6153982.064805124]},"properties":{"name":"LFRL","type":"airport","uuid":"airport-lfrl"}},{"type":"Feature","geometry":{"type":"Point","coordinates":[22449.461565390946,6098309.762728627]},"properties":{"name":"LFRM","type":"airport","uuid":"airport-lfrm"}},{"type":"Feature","geometry":{"type":"Point","coordinates":[-192830.0647964898,6118832.091057316]},"properties":{"name":"LFRN","type":"airport","uuid":"airport-lfrn"}},{"type":"Feature","geometry":{"type":"Point","coordinates":[-386495.02577392914,6233297.906820884]},"properties":{"name":"LFRO","type":"airport","uuid":"airport-lfro"}},{"type":"Feature","geometry":{"type":"Point","coordinates":[-264785.7467620308,6107178.234825534]},"properties":{"name":"LFRP","type":"airport","uuid":"airport-lfrp"}},{"type":"Feature","geometry":{"type":"Point","coordinates":[-463954.89996174356,6102696.732958505]},"properties":{"name":"LFRQ","type":"airport","uuid":"airport-lfrq"}},{"type":"Feature","geometry":{"type":"Point","coordinates":[-178977.00353096318,5967729.039956984]},"properties":{"name":"LFRS","type":"airport","uuid":"airport-lfrs"}},{"type":"Feature","geometry":{"type":"Point","coordinates":[-318002.7096215323,6196746.102684409]},"properties":{"name":"LFRT","type":"airport","uuid":"airport-lfrt"}},{"type":"Feature","geometry":{"type":"Point","coordinates":[-424869.4207830749,6207400.49190281]},"properties":{"name":"LFRU","type":"airport","uuid":"airport-lfru"}},{"type":"Feature","geometry":{"type":"Point","coordinates":[-303160.01808285346,6060260.740249236]},"properties":{"name":"LFRV","type":"airport","uuid":"airport-lfrv"}},{"type":"Feature","geometry":{"type":"Point","coordinates":[-240079.06606624078,5992912.831176413]},"properties":{"name":"LFRZ","type":"airport","uuid":"airport-lfrz"}},{"type":"Feature","geometry":{"type":"Point","coordinates":[838143.0303531031,6038914.48269523]},"properties":{"name":"LFSB","type":"airport","uuid":"airport-lfsb"}},{"type":"Feature","geometry":{"type":"Point","coordinates":[567172.774669648,5985573.207342267]},"properties":{"name":"LFSD","type":"airport","uuid":"airport-lfsd"}},{"type":"Feature","geometry":{"type":"Point","coordinates":[675338.2750679404,6161094.574323498]},"properties":{"name":"LFSG","type":"airport","uuid":"airport-lfsg"}},{"type":"Feature","geometry":{"type":"Point","coordinates":[870425.6826831523,6240476.991904807]},"properties":{"name":"LFSH","type":"airport","uuid":"airport-lfsh"}},{"type":"Feature","geometry":{"type":"Point","coordinates":[546362.2761516228,6212919.947153748]},"properties":{"name":"LFSI","type":"airport","uuid":"airport-lfsi"}},{"type":"Feature","geometry":{"type":"Point","coordinates":[560679.1995508687,6387409.6436491655]},"properties":{"name":"LFSJ","type":"airport","uuid":"airport-lfsj"}},{"type":"Feature","geometry":{"type":"Point","coordinates":[521346.22003766976,6224484.905233551]},"properties":{"name":"LFSK","type":"airport","uuid":"airport-lfsk"}},{"type":"Feature","geometry":{"type":"Point","coordinates":[165371.31891164384,5627777.062561898]},"properties":{"name":"LFSL","type":"airport","uuid":"airport-lfsl"}},{"type":"Feature","geometry":{"type":"Point","coordinates":[756013.9528902071,6021875.461516715]},"properties":{"name":"LFSM","type":"airport","uuid":"airport-lfsm"}},{"type":"Feature","geometry":{"type":"Point","coordinates":[693087.4875891508,6222798.343617523]},"properties":{"name":"LFSN","type":"airport","uuid":"airport-lfsn"}},{"type":"Feature","geometry":{"type":"Point","coordinates":[662845.6616682308,6204408.55268023]},"properties":{"name":"LFSO","type":"airport","uuid":"airport-lfso"}},{"type":"Feature","geometry":{"type":"Point","coordinates":[704559.6414011748,5927124.462935226]},"properties":{"name":"LFSP","type":"airport","uuid":"airport-lfsp"}},{"type":"Feature","geometry":{"type":"Point","coordinates":[-182965.9210289747,6072265.3558702525]},"properties":{"name":"LFSS","type":"airport","uuid":"airport-lfss"}},{"type":"Feature","geometry":{"type":"Point","coordinates":[849862.4062009304,6197493.25713251]},"properties":{"name":"LFST","type":"airport","uuid":"airport-lfst"}},{"type":"Feature","geometry":{"type":"Point","coordinates":[674194.127157151,6207260.308175252]},"properties":{"name":"LFSV","type":"airport","uuid":"airport-lfsv"}},{"type":"Feature","geometry":{"type":"Point","coordinates":[708548.5588991862,6071528.867159211]},"properties":{"name":"LFSX","type":"airport","uuid":"airport-lfsx"}},{"type":"Feature","geometry":{"type":"Point","coordinates":[682087.235651848,5349733.652183762]},"properties":{"name":"LFTF","type":"airport","uuid":"airport-lftf"}},{"type":"Feature","geometry":{"type":"Point","coordinates":[684181.928325689,5326781.745523081]},"properties":{"name":"LFTH","type":"airport","uuid":"airport-lfth"}},{"type":"Feature","geometry":{"type":"Point","coordinates":[637551.4305156176,5536473.130661403]},"properties":{"name":"LFTM","type":"airport","uuid":"airport-lftm"}},{"type":"Feature","geometry":{"type":"Point","coordinates":[686037.2840943245,5445174.804485853]},"properties":{"name":"LFTP","type":"airport","uuid":"airport-lftp"}},{"type":"Feature","geometry":{"type":"Point","coordinates":[491630.1622561824,5427991.121161287]},"properties":{"name":"LFTW","type":"airport","uuid":"airport-lftw"}},{"type":"Feature","geometry":{"type":"Point","coordinates":[721566.6930616825,5343269.596792119]},"properties":{"name":"LFTZ","type":"airport","uuid":"airport-lftz"}},{"type":"Feature","geometry":{"type":"Point","coordinates":[-6276687.5823730165,5957730.473417258]},"properties":{"name":"LFVM","type":"airport","uuid":"airport-lfvm"}},{"type":"Feature","geometry":{"type":"Point","coordinates":[-6253279.659991897,5903484.148690387]},"properties":{"name":"LFVP","type":"airport","uuid":"airport-lfvp"}},{"type":"Feature","geometry":{"type":"Point","coordinates":[594198.7041898736,5777100.242900142]},"properties":{"name":"LFXA","type":"airport","uuid":"airport-lfxa"}},{"type":"Feature","geometry":{"type":"Point","coordinates":[-70952.90980805903,5732549.806812256]},"properties":{"name":"LFXB","type":"airport","uuid":"airport-lfxb"}},{"type":"Feature","geometry":{"type":"Point","coordinates":[216145.37554568698,6274625.68477523]},"properties":{"name":"LFXU","type":"airport","uuid":"airport-lfxu"}},{"type":"Feature","geometry":{"type":"Point","coordinates":[363303.4961140779,6470798.007028397]},"properties":{"name":"LFYG","type":"airport","uuid":"airport-lfyg"}},{"type":"Feature","geometry":{"type":"Point","coordinates":[188006.2511175287,5994600.2862344375]},"properties":{"name":"LFYR","type":"airport","uuid":"airport-lfyr"}},{"type":"Feature","geometry":{"type":"Point","coordinates":[223844.88089264606,5228208.329644137]},"properties":{"name":"LFYS","type":"airport","uuid":"airport-lfys"}},{"type":"Feature","geometry":{"type":"Point","coordinates":[81541.5270060729,6383923.247547632]},"properties":{"name":"LFYV","type":"airport","uuid":"airport-lfyv"}},{"type":"Feature","geometry":{"type":"Point","coordinates":[680100.1827411882,5818624.820589007]},"properties":{"name":"LSGG","type":"airport","uuid":"airport-lsgg"}},{"type":"Feature","geometry":{"type":"Point","coordinates":[834834.2749438385,5927758.210460778]},"properties":{"name":"LSZB","type":"airport","uuid":"airport-lszb"}},{"type":"Feature","geometry":{"type":"Point","coordinates":[951565.2226391383,6017163.582954481]},"properties":{"name":"LSZH","type":"airport","uuid":"airport-lszh"}}]}