{"type":"FeatureCollection","features":[{"type":"Feature","geometry":{"type":"Point","coordinates":[312742.8636815501,6442163.774872075]},"properties":{"name":"ABY","freq":"321.000","type":"ndb","uuid":"ndb-aby"}},{"type":"Feature","geometry":{"type":"Point","coordinates":[266706.00797821477,4800683.089532987]},"properties":{"name":"ADX","freq":"384.000","type":"ndb","uuid":"ndb-adx"}},{"type":"Feature","geometry":{"type":"Point","coordinates":[-244876.5959765423,6396008.88857652]},"properties":{"name":"ALD","freq":"383.000","type":"ndb","uuid":"ndb-ald"}},{"type":"Feature","geometry":{"type":"Point","coordinates":[1142381.641535501,6106419.109937015]},"properties":{"name":"ALG","freq":"341.000","type":"ndb","uuid":"ndb-alg"}},{"type":"Feature","geometry":{"type":"Point","coordinates":[597436.2151250305,5389582.96544355]},"properties":{"name":"ALM","freq":"413.000","type":"ndb","uuid":"ndb-alm"}},{"type":"Feature","geometry":{"type":"Point","coordinates":[-671077.1814149395,5397268.827986997]},"properties":{"name":"AST","freq":"325.000","type":"ndb","uuid":"ndb-ast"}},{"type":"Feature","geometry":{"type":"Point","coordinates":[-660183.3323575865,5394389.049155195]},"properties":{"name":"AV","freq":"387.000","type":"ndb","uuid":"ndb-av"}},{"type":"Feature","geometry":{"type":"Point","coordinates":[311651.25238599896,5961792.278248634]},"properties":{"name":"AVD","freq":"288.500","type":"ndb","uuid":"ndb-avd"}},{"type":"Feature","geometry":{"type":"Point","coordinates":[389856.31779843196,6093583.720406976]},"properties":{"name":"AX","freq":"417.000","type":"ndb","uuid":"ndb-ax"}},{"type":"Feature","geometry":{"type":"Point","coordinates":[-337839.16259511653,5368894.077654802]},"properties":{"name":"B","freq":"395.000","type":"ndb","uuid":"ndb-b"}},{"type":"Feature","geometry":{"type":"Point","coordinates":[-205104.584760487,6582059.752904307]},"properties":{"name":"BIA","freq":"339.000","type":"ndb","uuid":"ndb-bia"}},{"type":"Feature","geometry":{"type":"Point","coordinates":[133858.56454875311,6052781.123925094]},"properties":{"name":"BLB","freq":"397.000","type":"ndb","uuid":"ndb-blb"}},{"type":"Feature","geometry":{"type":"Point","coordinates":[-125658.09057114349,5522170.737561582]},"properties":{"name":"BRS","freq":"358.000","type":"ndb","uuid":"ndb-brs"}},{"type":"Feature","geometry":{"type":"Point","coordinates":[180566.4294049257,5620760.652597758]},"properties":{"name":"BSC","freq":"351.000","type":"ndb","uuid":"ndb-bsc"}},{"type":"Feature","geometry":{"type":"Point","coordinates":[-493392.68993832846,6154167.936187997]},"properties":{"name":"BST","freq":"428.000","type":"ndb","uuid":"ndb-bst"}},{"type":"Feature","geometry":{"type":"Point","coordinates":[225925.99877302628,6358707.141910263]},"properties":{"name":"BV","freq":"391.000","type":"ndb","uuid":"ndb-bv"}},{"type":"Feature","geometry":{"type":"Point","coordinates":[-930723.6474299332,5361367.738355859]},"properties":{"name":"C","freq":"410.000","type":"ndb","uuid":"ndb-c"}},{"type":"Feature","geometry":{"type":"Point","coordinates":[1008437.0208359485,4756583.211023045]},"properties":{"name":"CAL","freq":"316.000","type":"ndb","uuid":"ndb-cal"}},{"type":"Feature","geometry":{"type":"Point","coordinates":[654969.8076946067,5715237.115367831]},"properties":{"name":"CH","freq":"346.000","type":"ndb","uuid":"ndb-ch"}},{"type":"Feature","geometry":{"type":"Point","coordinates":[546065.3932540931,5451258.912466988]},"properties":{"name":"CM","freq":"369.000","type":"ndb","uuid":"ndb-cm"}},{"type":"Feature","geometry":{"type":"Point","coordinates":[-35761.35549525836,6294510.49245376]},"properties":{"name":"CNE","freq":"404.000","type":"ndb","uuid":"ndb-cne"}},{"type":"Feature","geometry":{"type":"Point","coordinates":[-927115.1333696268,5367783.859392313]},"properties":{"name":"COA","freq":"401.000","type":"ndb","uuid":"ndb-coa"}},{"type":"Feature","geometry":{"type":"Point","coordinates":[324564.3133180186,4813965.918835056]},"properties":{"name":"CST","freq":"351.000","type":"ndb","uuid":"ndb-cst"}},{"type":"Feature","geometry":{"type":"Point","coordinates":[200501.86395907364,5931733.4778266065]},"properties":{"name":"CTX","freq":"428.000","type":"ndb","uuid":"ndb-ctx"}},{"type":"Feature","geometry":{"type":"Point","coordinates":[-584273.922221957,6460573.207797799]},"properties":{"name":"CUL","freq":"370.000","type":"ndb","uuid":"ndb-cul"}},{"type":"Feature","geometry":{"type":"Point","coordinates":[980344.3104510349,5247802.7301746635]},"properties":{"name":"CV","freq":"375.000","type":"ndb","uuid":"ndb-cv"}},{"type":"Feature","geometry":{"type":"Point","coordinates":[480767.2662016862,6234099.973567621]},"properties":{"name":"CVT","freq":"347.000","type":"ndb","uuid":"ndb-cvt"}},{"type":"Feature","geometry":{"type":"Point","coordinates":[-420051.72967610747,4919531.561552172]},"properties":{"name":"CVT","freq":"417.000","type":"ndb","uuid":"ndb-cvt"}},{"type":"Feature","geometry":{"type":"Point","coordinates":[998984.2025869145,4773906.346616071]},"properties":{"name":"DEC","freq":"331.000","type":"ndb","uuid":"ndb-dec"}},{"type":"Feature","geometry":{"type":"Point","coordinates":[590568.4828288626,5938746.676254827]},"properties":{"name":"DO","freq":"309.000","type":"ndb","uuid":"ndb-do"}},{"type":"Feature","geometry":{"type":"Point","coordinates":[-114451.89757587318,5418731.220027655]},"properties":{"name":"DX","freq":"334.000","type":"ndb","uuid":"ndb-dx"}},{"type":"Feature","geometry":{"type":"Point","coordinates":[-257670.54505341328,5228836.975767892]},"properties":{"name":"EAG","freq":"399.000","type":"ndb","uuid":"ndb-eag"}},{"type":"Feature","geometry":{"type":"Point","coordinates":[-417973.73492588557,4714909.649902614]},"properties":{"name":"EAL","freq":"332.000","type":"ndb","uuid":"ndb-eal"}},{"type":"Feature","geometry":{"type":"Point","coordinates":[-150960.02132186978,6613342.509391889]},"properties":{"name":"EAS","freq":"391.500","type":"ndb","uuid":"ndb-eas"}},{"type":"Feature","geometry":{"type":"Point","coordinates":[-52549.01499266108,4811673.285284853]},"properties":{"name":"EBT","freq":"362.000","type":"ndb","uuid":"ndb-ebt"}},{"type":"Feature","geometry":{"type":"Point","coordinates":[-418873.6293206261,4968143.026609517]},"properties":{"name":"ECV","freq":"319.000","type":"ndb","uuid":"ndb-ecv"}},{"type":"Feature","geometry":{"type":"Point","coordinates":[689472.7272685278,6162340.934345717]},"properties":{"name":"EMT","freq":"419.000","type":"ndb","uuid":"ndb-emt"}},{"type":"Feature","geometry":{"type":"Point","coordinates":[631679.3273762725,6313736.487565864]},"properties":{"name":"ETN","freq":"410.000","type":"ndb","uuid":"ndb-etn"}},{"type":"Feature","geometry":{"type":"Point","coordinates":[-878514.8062478879,4654514.597258847]},"properties":{"name":"EVR","freq":"425.000","type":"ndb","uuid":"ndb-evr"}},{"type":"Feature","geometry":{"type":"Point","coordinates":[-366803.2572162953,6577568.964557884]},"properties":{"name":"EX","freq":"337.000","type":"ndb","uuid":"ndb-ex"}},{"type":"Feature","geometry":{"type":"Point","coordinates":[446842.651382436,5397106.768643502]},"properties":{"name":"FG","freq":"339.000","type":"ndb","uuid":"ndb-fg"}},{"type":"Feature","geometry":{"type":"Point","coordinates":[966641.5614201599,6457663.586384922]},"properties":{"name":"FR","freq":"297.000","type":"ndb","uuid":"ndb-fr"}},{"type":"Feature","geometry":{"type":"Point","coordinates":[308373.57366791414,5149959.226433858]},"properties":{"name":"G","freq":"330.000","type":"ndb","uuid":"ndb-g"}},{"type":"Feature","geometry":{"type":"Point","coordinates":[-427943.04469011957,4895016.052825744]},"properties":{"name":"GE","freq":"421.000","type":"ndb","uuid":"ndb-ge"}},{"type":"Feature","geometry":{"type":"Point","coordinates":[276548.53721126745,6418981.828581532]},"properties":{"name":"GI","freq":"339.000","type":"ndb","uuid":"ndb-gi"}},{"type":"Feature","geometry":{"type":"Point","coordinates":[312498.51739925885,5164720.854515723]},"properties":{"name":"GRN","freq":"412.000","type":"ndb","uuid":"ndb-grn"}},{"type":"Feature","geometry":{"type":"Point","coordinates":[-477059.6468724931,6186697.229437918]},"properties":{"name":"GU","freq":"338.000","type":"ndb","uuid":"ndb-gu"}},{"type":"Feature","geometry":{"type":"Point","coordinates":[810503.266607395,6440196.376433944]},"properties":{"name":"HAN","freq":"376.000","type":"ndb","uuid":"ndb-han"}},{"type":"Feature","geometry":{"type":"Point","coordinates":[-199917.43663240896,5370953.309627198]},"properties":{"name":"HIG","freq":"328.000","type":"ndb","uuid":"ndb-hig"}},{"type":"Feature","geometry":{"type":"Point","coordinates":[819991.7070934827,6129134.937225508]},"properties":{"name":"HO","freq":"380.000","type":"ndb","uuid":"ndb-ho"}},{"type":"Feature","geometry":{"type":"Point","coordinates":[202657.13298915455,6229269.958115776]},"properties":{"name":"HOL","freq":"315.000","type":"ndb","uuid":"ndb-hol"}},{"type":"Feature","geometry":{"type":"Point","coordinates":[749430.6109709352,6034239.183377874]},"properties":{"name":"HR","freq":"289.000","type":"ndb","uuid":"ndb-hr"}},{"type":"Feature","geometry":{"type":"Point","coordinates":[1156422.709052145,6355331.68982543]},"properties":{"name":"ILM","freq":"488.000","type":"ndb","uuid":"ndb-ilm"}},{"type":"Feature","geometry":{"type":"Point","coordinates":[163686.0655093568,4709570.876236739]},"properties":{"name":"IZA","freq":"394.000","type":"ndb","uuid":"ndb-iza"}},{"type":"Feature","geometry":{"type":"Point","coordinates":[-247120.88967717707,6309873.17238594]},"properties":{"name":"JW","freq":"329.000","type":"ndb","uuid":"ndb-jw"}},{"type":"Feature","geometry":{"type":"Point","coordinates":[901415.4518938803,6240649.881032819]},"properties":{"name":"KBA","freq":"431.000","type":"ndb","uuid":"ndb-kba"}},{"type":"Feature","geometry":{"type":"Point","coordinates":[-1006371.4876842793,4720859.824131126]},"properties":{"name":"LAR","freq":"382.000","type":"ndb","uuid":"ndb-lar"}},{"type":"Feature","geometry":{"type":"Point","coordinates":[869534.7866139177,6165069.394662224]},"properties":{"name":"LHR","freq":"337.000","type":"ndb","uuid":"ndb-lhr"}},{"type":"Feature","geometry":{"type":"Point","coordinates":[786170.959543559,6608400.872940015]},"properties":{"name":"LJ","freq":"365.000","type":"ndb","uuid":"ndb-lj"}},{"type":"Feature","geometry":{"type":"Point","coordinates":[67122.52981818559,5421828.230340916]},"properties":{"name":"LMT","freq":"420.000","type":"ndb","uuid":"ndb-lmt"}},{"type":"Feature","geometry":{"type":"Point","coordinates":[-383016.29168663936,6067548.766722988]},"properties":{"name":"LOR","freq":"359.000","type":"ndb","uuid":"ndb-lor"}},{"type":"Feature","geometry":{"type":"Point","coordinates":[698127.8176777047,6274578.506012634]},"properties":{"name":"LOU","freq":"388.000","type":"ndb","uuid":"ndb-lou"}},{"type":"Feature","geometry":{"type":"Point","coordinates":[72138.12224211886,5094242.066560044]},"properties":{"name":"LRD","freq":"404.000","type":"ndb","uuid":"ndb-lrd"}},{"type":"Feature","geometry":{"type":"Point","coordinates":[726378.2615966564,5371042.620564526]},"properties":{"name":"LU","freq":"378.000","type":"ndb","uuid":"ndb-lu"}},{"type":"Feature","geometry":{"type":"Point","coordinates":[1103329.8674248783,6143239.1106334515]},"properties":{"name":"LUP","freq":"407.000","type":"ndb","uuid":"ndb-lup"}},{"type":"Feature","geometry":{"type":"Point","coordinates":[104561.16081889084,6614010.527526164]},"properties":{"name":"LZD","freq":"397.000","type":"ndb","uuid":"ndb-lzd"}},{"type":"Feature","geometry":{"type":"Point","coordinates":[571876.0231556639,5386824.958303858]},"properties":{"name":"MAR","freq":"383.000","type":"ndb","uuid":"ndb-mar"}},{"type":"Feature","geometry":{"type":"Point","coordinates":[669803.1298428103,5375353.88421257]},"properties":{"name":"MFB","freq":"688.000","type":"ndb","uuid":"ndb-mfb"}},{"type":"Feature","geometry":{"type":"Point","coordinates":[469019.9367928375,4842207.205881328]},"properties":{"name":"MN","freq":"344.000","type":"ndb","uuid":"ndb-mn"}},{"type":"Feature","geometry":{"type":"Point","coordinates":[301242.8799968279,6563360.929276717]},"properties":{"name":"MRV","freq":"404.000","type":"ndb","uuid":"ndb-mrv"}},{"type":"Feature","geometry":{"type":"Point","coordinates":[-227592.69892684778,5996721.735603456]},"properties":{"name":"MT","freq":"398.000","type":"ndb","uuid":"ndb-mt"}},{"type":"Feature","geometry":{"type":"Point","coordinates":[691139.3965002685,6321846.938288631]},"properties":{"name":"MTZ","freq":"354.000","type":"ndb","uuid":"ndb-mtz"}},{"type":"Feature","geometry":{"type":"Point","coordinates":[735416.723963293,5370693.678803203]},"properties":{"name":"MUS","freq":"428.000","type":"ndb","uuid":"ndb-mus"}},{"type":"Feature","geometry":{"type":"Point","coordinates":[131530.1937104887,5385290.695548304]},"properties":{"name":"MUT","freq":"350.000","type":"ndb","uuid":"ndb-mut"}},{"type":"Feature","geometry":{"type":"Point","coordinates":[288008.2294247387,6545853.9904809315]},"properties":{"name":"MVC","freq":"327.000","type":"ndb","uuid":"ndb-mvc"}},{"type":"Feature","geometry":{"type":"Point","coordinates":[682079.226832927,5349720.067530679]},"properties":{"name":"NFA","freq":"640.000","type":"ndb","uuid":"ndb-nfa"}},{"type":"Feature","geometry":{"type":"Point","coordinates":[490504.5985159394,5443369.139258594]},"properties":{"name":"NG","freq":"354.000","type":"ndb","uuid":"ndb-ng"}},{"type":"Feature","geometry":{"type":"Point","coordinates":[972142.8469668404,6332191.398577318]},"properties":{"name":"NKR","freq":"292.000","type":"ndb","uuid":"ndb-nkr"}},{"type":"Feature","geometry":{"type":"Point","coordinates":[-556227.2857373995,6523272.33376663]},"properties":{"name":"NQY","freq":"347.000","type":"ndb","uuid":"ndb-nqy"}},{"type":"Feature","geometry":{"type":"Point","coordinates":[355102.92937022593,5934836.213586741]},"properties":{"name":"NV","freq":"394.000","type":"ndb","uuid":"ndb-nv"}},{"type":"Feature","geometry":{"type":"Point","coordinates":[654373.0115356316,6624719.144796256]},"properties":{"name":"NW","freq":"373.000","type":"ndb","uuid":"ndb-nw"}},{"type":"Feature","geometry":{"type":"Point","coordinates":[630671.3293871395,5347020.4262403045]},"properties":{"name":"OB","freq":"395.000","type":"ndb","uuid":"ndb-ob"}},{"type":"Feature","geometry":{"type":"Point","coordinates":[1095569.3528125482,5723446.970183054]},"properties":{"name":"ORI","freq":"376.500","type":"ndb","uuid":"ndb-ori"}},{"type":"Feature","geometry":{"type":"Point","coordinates":[249649.41914430397,6096444.890557351]},"properties":{"name":"ORS","freq":"322.000","type":"ndb","uuid":"ndb-ors"}},{"type":"Feature","geometry":{"type":"Point","coordinates":[-563666.2416317407,6184603.134346066]},"properties":{"name":"OSA","freq":"351.000","type":"ndb","uuid":"ndb-osa"}},{"type":"Feature","geometry":{"type":"Point","coordinates":[314050.867698371,4807892.150352505]},"properties":{"name":"PA","freq":"307.500","type":"ndb","uuid":"ndb-pa"}},{"type":"Feature","geometry":{"type":"Point","coordinates":[801432.3051338628,6235446.443611532]},"properties":{"name":"PHG","freq":"424.000","type":"ndb","uuid":"ndb-phg"}},{"type":"Feature","geometry":{"type":"Point","coordinates":[1146266.0114784092,5402091.840290904]},"properties":{"name":"PIS","freq":"379.000","type":"ndb","uuid":"ndb-pis"}},{"type":"Feature","geometry":{"type":"Point","coordinates":[177684.49147661097,5326125.464259607]},"properties":{"name":"PMR","freq":"384.000","type":"ndb","uuid":"ndb-pmr"}},{"type":"Feature","geometry":{"type":"Point","coordinates":[-18503.742214223363,5359905.589547868]},"properties":{"name":"PO","freq":"397.000","type":"ndb","uuid":"ndb-po"}},{"type":"Feature","geometry":{"type":"Point","coordinates":[-191129.319431734,5291694.905422791]},"properties":{"name":"PP","freq":"354.000","type":"ndb","uuid":"ndb-pp"}},{"type":"Feature","geometry":{"type":"Point","coordinates":[362536.6285108354,4783069.495046467]},"properties":{"name":"PTC","freq":"401.000","type":"ndb","uuid":"ndb-ptc"}},{"type":"Feature","geometry":{"type":"Point","coordinates":[-33964.78260217803,5360887.399531331]},"properties":{"name":"PU","freq":"364.000","type":"ndb","uuid":"ndb-pu"}},{"type":"Feature","geometry":{"type":"Point","coordinates":[-122343.21258988524,5808656.349830178]},"properties":{"name":"RL","freq":"322.000","type":"ndb","uuid":"ndb-rl"}},{"type":"Feature","geometry":{"type":"Point","coordinates":[449409.122242675,5798373.441605515]},"properties":{"name":"RNN","freq":"358.000","type":"ndb","uuid":"ndb-rnn"}},{"type":"Feature","geometry":{"type":"Point","coordinates":[127587.59748947945,5034171.479335061]},"properties":{"name":"RUS","freq":"424.000","type":"ndb","uuid":"ndb-rus"}},{"type":"Feature","geometry":{"type":"Point","coordinates":[-428567.6707217929,5378427.978373951]},"properties":{"name":"SA","freq":"416.000","type":"ndb","uuid":"ndb-sa"}},{"type":"Feature","geometry":{"type":"Point","coordinates":[224021.22951931105,5228120.37029577]},"properties":{"name":"SAL","freq":"418.000","type":"ndb","uuid":"ndb-sal"}},{"type":"Feature","geometry":{"type":"Point","coordinates":[-23132.839550538545,4818709.364385029]},"properties":{"name":"SGO","freq":"356.000","type":"ndb","uuid":"ndb-sgo"}},{"type":"Feature","geometry":{"type":"Point","coordinates":[-32882.20055421344,6592248.908808251]},"properties":{"name":"SHM","freq":"332.000","type":"ndb","uuid":"ndb-shm"}},{"type":"Feature","geometry":{"type":"Point","coordinates":[905973.6758210568,6564889.737251394]},"properties":{"name":"SIL","freq":"489.000","type":"ndb","uuid":"ndb-sil"}},{"type":"Feature","geometry":{"type":"Point","coordinates":[458790.9124721666,5827646.884605384]},"properties":{"name":"SN","freq":"430.000","type":"ndb","uuid":"ndb-sn"}},{"type":"Feature","geometry":{"type":"Point","coordinates":[-939499.4267203787,5307271.382029009]},"properties":{"name":"SO","freq":"390.000","type":"ndb","uuid":"ndb-so"}},{"type":"Feature","geometry":{"type":"Point","coordinates":[803672.2697431887,6311893.3239438245]},"properties":{"name":"SR","freq":"360.000","type":"ndb","uuid":"ndb-sr"}},{"type":"Feature","geometry":{"type":"Point","coordinates":[-700322.914347825,6431411.686358974]},"properties":{"name":"STM","freq":"321.000","type":"ndb","uuid":"ndb-stm"}},{"type":"Feature","geometry":{"type":"Point","coordinates":[858885.5002934216,5739641.068916998]},"properties":{"name":"SVC","freq":"418.000","type":"ndb","uuid":"ndb-svc"}},{"type":"Feature","geometry":{"type":"Point","coordinates":[233486.3856785746,6236192.270692443]},"properties":{"name":"TA","freq":"286.500","type":"ndb","uuid":"ndb-ta"}},{"type":"Feature","geometry":{"type":"Point","coordinates":[5525.775834654995,5355971.102227119]},"properties":{"name":"TL","freq":"321.000","type":"ndb","uuid":"ndb-tl"}},{"type":"Feature","geometry":{"type":"Point","coordinates":[134838.8254314302,5403317.146992753]},"properties":{"name":"TLF","freq":"332.000","type":"ndb","uuid":"ndb-tlf"}},{"type":"Feature","geometry":{"type":"Point","coordinates":[684927.21231655,5316953.787537694]},"properties":{"name":"TLN","freq":"322.000","type":"ndb","uuid":"ndb-tln"}},{"type":"Feature","geometry":{"type":"Point","coordinates":[187004.37570038924,5385490.902429396]},"properties":{"name":"TOE","freq":"415.000","type":"ndb","uuid":"ndb-toe"}},{"type":"Feature","geometry":{"type":"Point","coordinates":[-57199.60317511552,5150183.662358641]},"properties":{"name":"TON","freq":"335.000","type":"ndb","uuid":"ndb-ton"}},{"type":"Feature","geometry":{"type":"Point","coordinates":[114133.40014388131,5393088.152158364]},"properties":{"name":"TW","freq":"406.000","type":"ndb","uuid":"ndb-tw"}},{"type":"Feature","geometry":{"type":"Point","coordinates":[445720.118006109,6173692.961077805]},"properties":{"name":"TY","freq":"320.000","type":"ndb","uuid":"ndb-ty"}},{"type":"Feature","geometry":{"type":"Point","coordinates":[447071.4129360162,6240617.912943007]},"properties":{"name":"VAT","freq":"367.000","type":"ndb","uuid":"ndb-vat"}},{"type":"Feature","geometry":{"type":"Point","coordinates":[189895.559330856,5043460.673549768]},"properties":{"name":"VNV","freq":"380.000","type":"ndb","uuid":"ndb-vnv"}},{"type":"Feature","geometry":{"type":"Point","coordinates":[-961689.0500410096,5188890.57883065]},"properties":{"name":"VON","freq":"433.000","type":"ndb","uuid":"ndb-von"}},{"type":"Feature","geometry":{"type":"Point","coordinates":[-312149.0669644103,5281874.110735942]},"properties":{"name":"VT","freq":"308.000","type":"ndb","uuid":"ndb-vt"}},{"type":"Feature","geometry":{"type":"Point","coordinates":[-298292.9134908061,5301031.710920278]},"properties":{"name":"VTA","freq":"345.000","type":"ndb","uuid":"ndb-vta"}},{"type":"Feature","geometry":{"type":"Point","coordinates":[-296602.4342568679,6610923.803651503]},"properties":{"name":"YVL","freq":"343.000","type":"ndb","uuid":"ndb-yvl"}},{"type":"Feature","geometry":{"type":"Point","coordinates":[365464.9804823947,5361890.439462299]},"properties":{"name":"ZR","freq":"397.000","type":"ndb","uuid":"ndb-zr"}},{"type":"Feature","geometry":{"type":"Point","coordinates":[-132841.1971691449,5120698.892854001]},"properties":{"name":"ZRZ","freq":"389.000","type":"ndb","uuid":"ndb-zrz"}},{"type":"Feature","geometry":{"type":"Point","coordinates":[-117831.65008259931,5112734.257572971]},"properties":{"name":"ZZA","freq":"133.700","type":"ndb","uuid":"ndb-zza"}}]}