{"type":"FeatureCollection","features":[{"type":"Feature","geometry":{"type":"Point","coordinates":[206463.57928850743,6469712.492143505]},"properties":{"name":"ABB","freq":"108.450","type":"vor","uuid":"vor-abb"}},{"type":"Feature","geometry":{"type":"Point","coordinates":[923036.4799932037,4959116.977949295]},"properties":{"name":"AEA","freq":"111.650","type":"vor","uuid":"vor-aea"}},{"type":"Feature","geometry":{"type":"Point","coordinates":[460748.249263201,6604977.2971255835]},"properties":{"name":"AFI","freq":"114.900","type":"vor","uuid":"vor-afi"}},{"type":"Feature","geometry":{"type":"Point","coordinates":[97166.4235000591,5448130.5434299195]},"properties":{"name":"AGN","freq":"114.800","type":"vor","uuid":"vor-agn"}},{"type":"Feature","geometry":{"type":"Point","coordinates":[922789.1342690772,4958807.288382028]},"properties":{"name":"AHO","freq":"109.300","type":"vor","uuid":"vor-aho"}},{"type":"Feature","geometry":{"type":"Point","coordinates":[976791.4252140445,5126667.398167748]},"properties":{"name":"AJO","freq":"114.800","type":"vor","uuid":"vor-ajo"}},{"type":"Feature","geometry":{"type":"Point","coordinates":[976791.4561361255,5126667.356707164]},"properties":{"name":"AJO","freq":"114.800","type":"vor","uuid":"vor-ajo"}},{"type":"Feature","geometry":{"type":"Point","coordinates":[904761.4993325606,5472899.157083088]},"properties":{"name":"ALB","freq":"116.950","type":"vor","uuid":"vor-alb"}},{"type":"Feature","geometry":{"type":"Point","coordinates":[1138935.4065551066,6104975.123364557]},"properties":{"name":"ALD","freq":"117.200","type":"vor","uuid":"vor-ald"}},{"type":"Feature","geometry":{"type":"Point","coordinates":[917705.5132674368,4957645.9989677835]},"properties":{"name":"ALG","freq":"113.800","type":"vor","uuid":"vor-alg"}},{"type":"Feature","geometry":{"type":"Point","coordinates":[118493.351689123,6012367.420868809]},"properties":{"name":"AMB","freq":"113.700","type":"vor","uuid":"vor-amb"}},{"type":"Feature","geometry":{"type":"Point","coordinates":[-94825.59106324197,6030147.948408331]},"properties":{"name":"ANG","freq":"111.050","type":"vor","uuid":"vor-ang"}},{"type":"Feature","geometry":{"type":"Point","coordinates":[292754.7688238408,5951559.818634925]},"properties":{"name":"AVD","freq":"110.600","type":"vor","uuid":"vor-avd"}},{"type":"Feature","geometry":{"type":"Point","coordinates":[528365.5942179627,5464724.289661872]},"properties":{"name":"AVN","freq":"114.600","type":"vor","uuid":"vor-avn"}},{"type":"Feature","geometry":{"type":"Point","coordinates":[804218.4155338529,5412933.492682699]},"properties":{"name":"AZR","freq":"109.650","type":"vor","uuid":"vor-azr"}},{"type":"Feature","geometry":{"type":"Point","coordinates":[-292745.5231216888,5060183.854049721]},"properties":{"name":"BAN","freq":"112.800","type":"vor","uuid":"vor-ban"}},{"type":"Feature","geometry":{"type":"Point","coordinates":[530854.7907983426,6578397.389398266]},"properties":{"name":"BBE","freq":"116.000","type":"vor","uuid":"vor-bbe"}},{"type":"Feature","geometry":{"type":"Point","coordinates":[-607451.8461662667,5014804.320564381]},"properties":{"name":"BBI","freq":"112.200","type":"vor","uuid":"vor-bbi"}},{"type":"Feature","geometry":{"type":"Point","coordinates":[234639.87205775833,5057750.680342748]},"properties":{"name":"BCN","freq":"116.700","type":"vor","uuid":"vor-bcn"}},{"type":"Feature","geometry":{"type":"Point","coordinates":[195427.58142582772,6104410.597178576]},"properties":{"name":"BCY","freq":"117.350","type":"vor","uuid":"vor-bcy"}},{"type":"Feature","geometry":{"type":"Point","coordinates":[517997.38961171947,6488190.452177644]},"properties":{"name":"BFS","freq":"111.500","type":"vor","uuid":"vor-bfs"}},{"type":"Feature","geometry":{"type":"Point","coordinates":[357208.7539931462,5153147.459659831]},"properties":{"name":"BGR","freq":"112.200","type":"vor","uuid":"vor-bgr"}},{"type":"Feature","geometry":{"type":"Point","coordinates":[-388915.66810122883,6515594.655738192]},"properties":{"name":"BHD","freq":"112.050","type":"vor","uuid":"vor-bhd"}},{"type":"Feature","geometry":{"type":"Point","coordinates":[834840.5212041552,6045982.7697547935]},"properties":{"name":"BLM","freq":"117.450","type":"vor","uuid":"vor-blm"}},{"type":"Feature","geometry":{"type":"Point","coordinates":[-325640.4326511011,5358384.309742984]},"properties":{"name":"BLV","freq":"117.650","type":"vor","uuid":"vor-blv"}},{"type":"Feature","geometry":{"type":"Point","coordinates":[-325649.67835325305,5358388.473916838]},"properties":{"name":"BLV","freq":"117.650","type":"vor","uuid":"vor-blv"}},{"type":"Feature","geometry":{"type":"Point","coordinates":[-80273.69077217983,5594318.363488336]},"properties":{"name":"BMC","freq":"113.750","type":"vor","uuid":"vor-bmc"}},{"type":"Feature","geometry":{"type":"Point","coordinates":[212298.6068530023,6555187.730884023]},"properties":{"name":"BNE","freq":"113.800","type":"vor","uuid":"vor-bne"}},{"type":"Feature","geometry":{"type":"Point","coordinates":[239692.44729029955,6349229.670980748]},"properties":{"name":"BOV","freq":"109.650","type":"vor","uuid":"vor-bov"}},{"type":"Feature","geometry":{"type":"Point","coordinates":[-396022.1807051483,4934352.307782409]},"properties":{"name":"BRA","freq":"116.450","type":"vor","uuid":"vor-bra"}},{"type":"Feature","geometry":{"type":"Point","coordinates":[1077761.2337274596,5728110.094163861]},"properties":{"name":"BRL","freq":"111.050","type":"vor","uuid":"vor-brl"}},{"type":"Feature","geometry":{"type":"Point","coordinates":[366772.9844992157,6174834.165419857]},"properties":{"name":"BRY","freq":"114.100","type":"vor","uuid":"vor-bry"}},{"type":"Feature","geometry":{"type":"Point","coordinates":[1148764.5774492642,5690943.930190621]},"properties":{"name":"BSM","freq":"115.650","type":"vor","uuid":"vor-bsm"}},{"type":"Feature","geometry":{"type":"Point","coordinates":[340251.11581771827,6306873.564999511]},"properties":{"name":"BSN","freq":"114.850","type":"vor","uuid":"vor-bsn"}},{"type":"Feature","geometry":{"type":"Point","coordinates":[-495606.7109218835,6154321.32959192]},"properties":{"name":"BST","freq":"114.700","type":"vor","uuid":"vor-bst"}},{"type":"Feature","geometry":{"type":"Point","coordinates":[273307.93406803295,6270563.997170511]},"properties":{"name":"BT","freq":"116.100","type":"vor","uuid":"vor-bt"}},{"type":"Feature","geometry":{"type":"Point","coordinates":[1054733.56017364,5247290.391907446]},"properties":{"name":"BTA","freq":"114.150","type":"vor","uuid":"vor-bta"}},{"type":"Feature","geometry":{"type":"Point","coordinates":[-168123.35317861903,5383270.927545812]},"properties":{"name":"BTZ","freq":"114.150","type":"vor","uuid":"vor-btz"}},{"type":"Feature","geometry":{"type":"Point","coordinates":[505177.0639999467,6604035.671521682]},"properties":{"name":"BUB","freq":"114.600","type":"vor","uuid":"vor-bub"}},{"type":"Feature","geometry":{"type":"Point","coordinates":[786970.6663965853,6477286.601880225]},"properties":{"name":"BUE","freq":"117.100","type":"vor","uuid":"vor-bue"}},{"type":"Feature","geometry":{"type":"Point","coordinates":[-402262.19476156525,5214301.726289855]},"properties":{"name":"BUR","freq":"111.400","type":"vor","uuid":"vor-bur"}},{"type":"Feature","geometry":{"type":"Point","coordinates":[-494725.4006976894,6180714.806187629]},"properties":{"name":"BZH","freq":"110.650","type":"vor","uuid":"vor-bzh"}},{"type":"Feature","geometry":{"type":"Point","coordinates":[-126462.03374923638,5548012.838653895]},"properties":{"name":"CAA","freq":"110.800","type":"vor","uuid":"vor-caa"}},{"type":"Feature","geometry":{"type":"Point","coordinates":[154409.34851034163,6116703.756846778]},"properties":{"name":"CAD","freq":"115.950","type":"vor","uuid":"vor-cad"}},{"type":"Feature","geometry":{"type":"Point","coordinates":[1007892.884980535,4757397.673665367]},"properties":{"name":"CAG","freq":"113.400","type":"vor","uuid":"vor-cag"}},{"type":"Feature","geometry":{"type":"Point","coordinates":[963751.5837508437,5711742.45332057]},"properties":{"name":"CAM","freq":"115.000","type":"vor","uuid":"vor-cam"}},{"type":"Feature","geometry":{"type":"Point","coordinates":[-50681.29039171539,6304300.031924016]},"properties":{"name":"CAN","freq":"114.450","type":"vor","uuid":"vor-can"}},{"type":"Feature","geometry":{"type":"Point","coordinates":[1058428.8106705227,4737635.632765659]},"properties":{"name":"CAR","freq":"115.100","type":"vor","uuid":"vor-car"}},{"type":"Feature","geometry":{"type":"Point","coordinates":[461635.6820593888,6237797.027655233]},"properties":{"name":"CAV","freq":"111.650","type":"vor","uuid":"vor-cav"}},{"type":"Feature","geometry":{"type":"Point","coordinates":[640900.3537078103,5761441.991709507]},"properties":{"name":"CBY","freq":"115.400","type":"vor","uuid":"vor-cby"}},{"type":"Feature","geometry":{"type":"Point","coordinates":[-716309.9702518588,4797082.608785598]},"properties":{"name":"CCS","freq":"114.200","type":"vor","uuid":"vor-ccs"}},{"type":"Feature","geometry":{"type":"Point","coordinates":[382311.2991670294,4822108.736579654]},"properties":{"name":"CDP","freq":"112.900","type":"vor","uuid":"vor-cdp"}},{"type":"Feature","geometry":{"type":"Point","coordinates":[355353.3982245108,5746356.615413061]},"properties":{"name":"CFA","freq":"114.350","type":"vor","uuid":"vor-cfa"}},{"type":"Feature","geometry":{"type":"Point","coordinates":[-34270.911201859526,5726264.8334640255]},"properties":{"name":"CGC","freq":"116.200","type":"vor","uuid":"vor-cgc"}},{"type":"Feature","geometry":{"type":"Point","coordinates":[278311.0648934135,6278241.558720267]},"properties":{"name":"CGN","freq":"115.350","type":"vor","uuid":"vor-cgn"}},{"type":"Feature","geometry":{"type":"Point","coordinates":[1006307.8191199618,6432623.426833621]},"properties":{"name":"CHA","freq":"115.350","type":"vor","uuid":"vor-cha"}},{"type":"Feature","geometry":{"type":"Point","coordinates":[109878.55275119697,6187084.445523485]},"properties":{"name":"CHW","freq":"115.200","type":"vor","uuid":"vor-chw"}},{"type":"Feature","geometry":{"type":"Point","coordinates":[193903.06099941386,5921074.921039525]},"properties":{"name":"CHX","freq":"108.650","type":"vor","uuid":"vor-chx"}},{"type":"Feature","geometry":{"type":"Point","coordinates":[426662.8705459968,6546262.926460027]},"properties":{"name":"CIV","freq":"113.200","type":"vor","uuid":"vor-civ"}},{"type":"Feature","geometry":{"type":"Point","coordinates":[-283264.7822337142,4920144.378698578]},"properties":{"name":"CJN","freq":"115.600","type":"vor","uuid":"vor-cjn"}},{"type":"Feature","geometry":{"type":"Point","coordinates":[293292.78210726083,5107208.943725175]},"properties":{"name":"CLE","freq":"115.350","type":"vor","uuid":"vor-cle"}},{"type":"Feature","geometry":{"type":"Point","coordinates":[851909.4479482956,5652084.025326906]},"properties":{"name":"CLL","freq":"109.000","type":"vor","uuid":"vor-cll"}},{"type":"Feature","geometry":{"type":"Point","coordinates":[335501.4532884578,6248540.8612345]},"properties":{"name":"CLM","freq":"112.900","type":"vor","uuid":"vor-clm"}},{"type":"Feature","geometry":{"type":"Point","coordinates":[-109798.06257493727,4823479.380552881]},"properties":{"name":"CLS","freq":"117.550","type":"vor","uuid":"vor-cls"}},{"type":"Feature","geometry":{"type":"Point","coordinates":[-144498.91438790504,4992788.962479669]},"properties":{"name":"CMA","freq":"116.000","type":"vor","uuid":"vor-cma"}},{"type":"Feature","geometry":{"type":"Point","coordinates":[350823.3443129209,6485879.6227974985]},"properties":{"name":"CMB","freq":"112.600","type":"vor","uuid":"vor-cmb"}},{"type":"Feature","geometry":{"type":"Point","coordinates":[-34691.48242249267,5725959.642499057]},"properties":{"name":"CNA","freq":"114.650","type":"vor","uuid":"vor-cna"}},{"type":"Feature","geometry":{"type":"Point","coordinates":[764869.9749802661,5397657.176048841]},"properties":{"name":"CNM","freq":"111.400","type":"vor","uuid":"vor-cnm"}},{"type":"Feature","geometry":{"type":"Point","coordinates":[-415871.00251104304,4960262.017922508]},"properties":{"name":"CNR","freq":"117.300","type":"vor","uuid":"vor-cnr"}},{"type":"Feature","geometry":{"type":"Point","coordinates":[845379.6630729275,6583091.252367381]},"properties":{"name":"COL","freq":"108.800","type":"vor","uuid":"vor-col"}},{"type":"Feature","geometry":{"type":"Point","coordinates":[851544.6601613819,5656178.790170122]},"properties":{"name":"CSL","freq":"116.750","type":"vor","uuid":"vor-csl"}},{"type":"Feature","geometry":{"type":"Point","coordinates":[398267.0619253178,6298267.043797062]},"properties":{"name":"CTL","freq":"117.600","type":"vor","uuid":"vor-ctl"}},{"type":"Feature","geometry":{"type":"Point","coordinates":[9929.018292982932,4897789.677927277]},"properties":{"name":"CTN","freq":"117.050","type":"vor","uuid":"vor-ctn"}},{"type":"Feature","geometry":{"type":"Point","coordinates":[1093342.9629966829,5847597.93498819]},"properties":{"name":"CVA","freq":"112.050","type":"vor","uuid":"vor-cva"}},{"type":"Feature","geometry":{"type":"Point","coordinates":[-915633.7338554511,5002513.231313986]},"properties":{"name":"DAR","freq":"114.900","type":"vor","uuid":"vor-dar"}},{"type":"Feature","geometry":{"type":"Point","coordinates":[998053.4788776403,4776406.348049458]},"properties":{"name":"DEC","freq":"108.200","type":"vor","uuid":"vor-dec"}},{"type":"Feature","geometry":{"type":"Point","coordinates":[-360750.94019018806,6596335.386332519]},"properties":{"name":"DFO","freq":"110.850","type":"vor","uuid":"vor-dfo"}},{"type":"Feature","geometry":{"type":"Point","coordinates":[-320677.3768424061,5229126.189660068]},"properties":{"name":"DGO","freq":"112.600","type":"vor","uuid":"vor-dgo"}},{"type":"Feature","geometry":{"type":"Point","coordinates":[682360.6177679879,6422291.010762087]},"properties":{"name":"DIK","freq":"114.400","type":"vor","uuid":"vor-dik"}},{"type":"Feature","geometry":{"type":"Point","coordinates":[-231804.2244843651,6204913.392267744]},"properties":{"name":"DIN","freq":"114.300","type":"vor","uuid":"vor-din"}},{"type":"Feature","geometry":{"type":"Point","coordinates":[567432.4892260849,5986384.439850341]},"properties":{"name":"DJL","freq":"111.450","type":"vor","uuid":"vor-djl"}},{"type":"Feature","geometry":{"type":"Point","coordinates":[1139722.9919524689,6299118.357432467]},"properties":{"name":"DKB","freq":"117.800","type":"vor","uuid":"vor-dkb"}},{"type":"Feature","geometry":{"type":"Point","coordinates":[-877908.7953088415,5048998.980187566]},"properties":{"name":"DMR","freq":"114.600","type":"vor","uuid":"vor-dmr"}},{"type":"Feature","geometry":{"type":"Point","coordinates":[-911428.3308699273,4732738.997521663]},"properties":{"name":"DMT","freq":"110.800","type":"vor","uuid":"vor-dmt"}},{"type":"Feature","geometry":{"type":"Point","coordinates":[-912294.1491316528,5132975.589641723]},"properties":{"name":"DMU","freq":"113.800","type":"vor","uuid":"vor-dmu"}},{"type":"Feature","geometry":{"type":"Point","coordinates":[-969623.6868901887,5130859.898177304]},"properties":{"name":"DSA","freq":"115.200","type":"vor","uuid":"vor-dsa"}},{"type":"Feature","geometry":{"type":"Point","coordinates":[34812.04761543794,6327754.556078155]},"properties":{"name":"DVL","freq":"110.200","type":"vor","uuid":"vor-dvl"}},{"type":"Feature","geometry":{"type":"Point","coordinates":[1157246.4732840152,5271070.132769427]},"properties":{"name":"ELB","freq":"114.700","type":"vor","uuid":"vor-elb"}},{"type":"Feature","geometry":{"type":"Point","coordinates":[-628525.3060592106,5250343.669276787]},"properties":{"name":"EON","freq":"112.000","type":"vor","uuid":"vor-eon"}},{"type":"Feature","geometry":{"type":"Point","coordinates":[674531.2087596891,6159894.709581369]},"properties":{"name":"EPL","freq":"113.000","type":"vor","uuid":"vor-epl"}},{"type":"Feature","geometry":{"type":"Point","coordinates":[184406.9518372936,6211586.494594868]},"properties":{"name":"EPR","freq":"115.650","type":"vor","uuid":"vor-epr"}},{"type":"Feature","geometry":{"type":"Point","coordinates":[135148.07716127008,6279703.348023538]},"properties":{"name":"EVX","freq":"112.400","type":"vor","uuid":"vor-evx"}},{"type":"Feature","geometry":{"type":"Point","coordinates":[961476.6771902406,6455588.206262858]},"properties":{"name":"FFM","freq":"114.200","type":"vor","uuid":"vor-ffm"}},{"type":"Feature","geometry":{"type":"Point","coordinates":[1011161.3489185487,5086699.738966713]},"properties":{"name":"FGI","freq":"116.700","type":"vor","uuid":"vor-fgi"}},{"type":"Feature","geometry":{"type":"Point","coordinates":[1058096.6456788278,6051718.994312662]},"properties":{"name":"FHD","freq":"112.600","type":"vor","uuid":"vor-fhd"}},{"type":"Feature","geometry":{"type":"Point","coordinates":[808246.6040744499,6436177.254917717]},"properties":{"name":"FHH","freq":"117.350","type":"vor","uuid":"vor-fhh"}},{"type":"Feature","geometry":{"type":"Point","coordinates":[442464.02290040575,5400422.722986328]},"properties":{"name":"FJR","freq":"114.450","type":"vor","uuid":"vor-fjr"}},{"type":"Feature","geometry":{"type":"Point","coordinates":[950931.2581390707,6410154.251685412]},"properties":{"name":"FKS","freq":"117.500","type":"vor","uuid":"vor-fks"}},{"type":"Feature","geometry":{"type":"Point","coordinates":[571573.0176861408,6599506.461007401]},"properties":{"name":"FLO","freq":"112.050","type":"vor","uuid":"vor-flo"}},{"type":"Feature","geometry":{"type":"Point","coordinates":[950575.7160543093,6451890.719544905]},"properties":{"name":"FRD","freq":"115.900","type":"vor","uuid":"vor-frd"}},{"type":"Feature","geometry":{"type":"Point","coordinates":[-945396.2366022636,4817480.089052415]},"properties":{"name":"FTM","freq":"113.500","type":"vor","uuid":"vor-ftm"}},{"type":"Feature","geometry":{"type":"Point","coordinates":[1065568.9664983263,6549518.046756447]},"properties":{"name":"FUL","freq":"112.100","type":"vor","uuid":"vor-ful"}},{"type":"Feature","geometry":{"type":"Point","coordinates":[203065.3353774773,5458334.968386133]},"properties":{"name":"GAI","freq":"108.500","type":"vor","uuid":"vor-gai"}},{"type":"Feature","geometry":{"type":"Point","coordinates":[1029612.2143746449,6517925.820588008]},"properties":{"name":"GED","freq":"110.800","type":"vor","uuid":"vor-ged"}},{"type":"Feature","geometry":{"type":"Point","coordinates":[1011040.6600372801,5531362.528225445]},"properties":{"name":"GEN","freq":"112.800","type":"vor","uuid":"vor-gen"}},{"type":"Feature","geometry":{"type":"Point","coordinates":[1142567.7615396914,5691120.210296637]},"properties":{"name":"GHE","freq":"110.900","type":"vor","uuid":"vor-ghe"}},{"type":"Feature","geometry":{"type":"Point","coordinates":[308562.1365164856,5150686.542675348]},"properties":{"name":"GIR","freq":"114.100","type":"vor","uuid":"vor-gir"}},{"type":"Feature","geometry":{"type":"Point","coordinates":[672947.3488602664,6614811.356919761]},"properties":{"name":"GIX","freq":"116.150","type":"vor","uuid":"vor-gix"}},{"type":"Feature","geometry":{"type":"Point","coordinates":[498853.5603254348,6527523.9447407955]},"properties":{"name":"GOS","freq":"115.700","type":"vor","uuid":"vor-gos"}},{"type":"Feature","geometry":{"type":"Point","coordinates":[747646.4069101652,6272561.5185289215]},"properties":{"name":"GTQ","freq":"111.250","type":"vor","uuid":"vor-gtq"}},{"type":"Feature","geometry":{"type":"Point","coordinates":[-289854.896088676,6349355.682216801]},"properties":{"name":"GUR","freq":"109.400","type":"vor","uuid":"vor-gur"}},{"type":"Feature","geometry":{"type":"Point","coordinates":[-84239.44763169021,6595723.468189441]},"properties":{"name":"GWC","freq":"114.750","type":"vor","uuid":"vor-gwc"}},{"type":"Feature","geometry":{"type":"Point","coordinates":[-199901.94466994022,5370953.309627198]},"properties":{"name":"HIG","freq":"113.200","type":"vor","uuid":"vor-hig"}},{"type":"Feature","geometry":{"type":"Point","coordinates":[-567695.3269126802,4651459.591295997]},"properties":{"name":"HIJ","freq":"114.700","type":"vor","uuid":"vor-hij"}},{"type":"Feature","geometry":{"type":"Point","coordinates":[853313.310415522,6018563.154784849]},"properties":{"name":"HOC","freq":"113.200","type":"vor","uuid":"vor-hoc"}},{"type":"Feature","geometry":{"type":"Point","coordinates":[-35489.30302859191,5171974.883462939]},"properties":{"name":"HUE","freq":"114.550","type":"vor","uuid":"vor-hue"}},{"type":"Feature","geometry":{"type":"Point","coordinates":[516704.8775573672,6577097.284982731]},"properties":{"name":"HUL","freq":"117.550","type":"vor","uuid":"vor-hul"}},{"type":"Feature","geometry":{"type":"Point","coordinates":[684352.0306920373,5327251.901297151]},"properties":{"name":"HYE","freq":"109.000","type":"vor","uuid":"vor-hye"}},{"type":"Feature","geometry":{"type":"Point","coordinates":[152056.17816329497,4702828.8829680225]},"properties":{"name":"IBA","freq":"117.800","type":"vor","uuid":"vor-iba"}},{"type":"Feature","geometry":{"type":"Point","coordinates":[548461.8854363069,5392392.928165797]},"properties":{"name":"ITR","freq":"115.700","type":"vor","uuid":"vor-itr"}},{"type":"Feature","geometry":{"type":"Point","coordinates":[305754.44250411383,4802881.070136742]},"properties":{"name":"JOA","freq":"117.700","type":"vor","uuid":"vor-joa"}},{"type":"Feature","geometry":{"type":"Point","coordinates":[-227775.69580087965,6312462.043428788]},"properties":{"name":"JSY","freq":"112.200","type":"vor","uuid":"vor-jsy"}},{"type":"Feature","geometry":{"type":"Point","coordinates":[900406.1242552736,6237652.11782817]},"properties":{"name":"KBD","freq":"115.800","type":"vor","uuid":"vor-kbd"}},{"type":"Feature","geometry":{"type":"Point","coordinates":[795435.3077102636,6596862.499302375]},"properties":{"name":"KBO","freq":"112.150","type":"vor","uuid":"vor-kbo"}},{"type":"Feature","geometry":{"type":"Point","coordinates":[951289.9233539905,6017012.616520881]},"properties":{"name":"KLO","freq":"114.850","type":"vor","uuid":"vor-klo"}},{"type":"Feature","geometry":{"type":"Point","coordinates":[295182.21400891116,6638066.072225735]},"properties":{"name":"KOK","freq":"114.500","type":"vor","uuid":"vor-kok"}},{"type":"Feature","geometry":{"type":"Point","coordinates":[1152138.1146177545,6064664.583642665]},"properties":{"name":"KPT","freq":"108.400","type":"vor","uuid":"vor-kpt"}},{"type":"Feature","geometry":{"type":"Point","coordinates":[955592.7618160392,6273664.204381099]},"properties":{"name":"KRH","freq":"115.950","type":"vor","uuid":"vor-krh"}},{"type":"Feature","geometry":{"type":"Point","coordinates":[1038360.3493248768,5989816.588728378]},"properties":{"name":"KRO","freq":"109.150","type":"vor","uuid":"vor-kro"}},{"type":"Feature","geometry":{"type":"Point","coordinates":[713916.6011998033,5889389.012132934]},"properties":{"name":"LAP","freq":"110.650","type":"vor","uuid":"vor-lap"}},{"type":"Feature","geometry":{"type":"Point","coordinates":[1039749.4001154115,6260107.951944633]},"properties":{"name":"LBU","freq":"109.200","type":"vor","uuid":"vor-lbu"}},{"type":"Feature","geometry":{"type":"Point","coordinates":[710360.5928326545,5370827.705608206]},"properties":{"name":"LC","freq":"109.300","type":"vor","uuid":"vor-lc"}},{"type":"Feature","geometry":{"type":"Point","coordinates":[678934.4512180171,5848656.467535649]},"properties":{"name":"LDL","freq":"115.900","type":"vor","uuid":"vor-ldl"}},{"type":"Feature","geometry":{"type":"Point","coordinates":[-462677.8489477793,6195195.772645357]},"properties":{"name":"LDV","freq":"115.150","type":"vor","uuid":"vor-ldv"}},{"type":"Feature","geometry":{"type":"Point","coordinates":[343884.4912309684,6544140.321543558]},"properties":{"name":"LEQ","freq":"109.000","type":"vor","uuid":"vor-leq"}},{"type":"Feature","geometry":{"type":"Point","coordinates":[-55103.11702058964,5451653.746198354]},"properties":{"name":"LGH","freq":"111.650","type":"vor","uuid":"vor-lgh"}},{"type":"Feature","geometry":{"type":"Point","coordinates":[-55093.90224051842,5451628.078700764]},"properties":{"name":"LGH","freq":"111.650","type":"vor","uuid":"vor-lgh"}},{"type":"Feature","geometry":{"type":"Point","coordinates":[59030.25220121091,6239406.82892536]},"properties":{"name":"LGL","freq":"112.700","type":"vor","uuid":"vor-lgl"}},{"type":"Feature","geometry":{"type":"Point","coordinates":[617760.0310137238,6568554.545966439]},"properties":{"name":"LIE","freq":"113.850","type":"vor","uuid":"vor-lie"}},{"type":"Feature","geometry":{"type":"Point","coordinates":[1032519.1991883884,5694430.469867904]},"properties":{"name":"LIN","freq":"112.250","type":"vor","uuid":"vor-lin"}},{"type":"Feature","geometry":{"type":"Point","coordinates":[58708.66256114144,5120587.019664201]},"properties":{"name":"LLE","freq":"113.600","type":"vor","uuid":"vor-lle"}},{"type":"Feature","geometry":{"type":"Point","coordinates":[-2050.1648775235644,5383275.230712314]},"properties":{"name":"LMB","freq":"111.800","type":"vor","uuid":"vor-lmb"}},{"type":"Feature","geometry":{"type":"Point","coordinates":[114167.35258857325,5750898.694907462]},"properties":{"name":"LMG","freq":"114.500","type":"vor","uuid":"vor-lmg"}},{"type":"Feature","geometry":{"type":"Point","coordinates":[-627503.6095882937,6469907.343683583]},"properties":{"name":"LND","freq":"114.200","type":"vor","uuid":"vor-lnd"}},{"type":"Feature","geometry":{"type":"Point","coordinates":[635665.214510368,6548356.758383547]},"properties":{"name":"LNO","freq":"112.800","type":"vor","uuid":"vor-lno"}},{"type":"Feature","geometry":{"type":"Point","coordinates":[265648.47281567863,6229162.134779932]},"properties":{"name":"LOL","freq":"113.950","type":"vor","uuid":"vor-lol"}},{"type":"Feature","geometry":{"type":"Point","coordinates":[-383068.95199020073,6067263.607765094]},"properties":{"name":"LOR","freq":"115.800","type":"vor","uuid":"vor-lor"}},{"type":"Feature","geometry":{"type":"Point","coordinates":[-259031.20937379557,5230215.860815538]},"properties":{"name":"LPA","freq":"115.450","type":"vor","uuid":"vor-lpa"}},{"type":"Feature","geometry":{"type":"Point","coordinates":[-924709.3954852612,5372468.222818174]},"properties":{"name":"LRA","freq":"115.100","type":"vor","uuid":"vor-lra"}},{"type":"Feature","geometry":{"type":"Point","coordinates":[871355.2004312762,6167650.3043714]},"properties":{"name":"LRD","freq":"108.050","type":"vor","uuid":"vor-lrd"}},{"type":"Feature","geometry":{"type":"Point","coordinates":[566681.0826632304,5739663.224253543]},"properties":{"name":"LSE","freq":"114.750","type":"vor","uuid":"vor-lse"}},{"type":"Feature","geometry":{"type":"Point","coordinates":[605472.925762851,5698831.411100291]},"properties":{"name":"LTP","freq":"115.550","type":"vor","uuid":"vor-ltp"}},{"type":"Feature","geometry":{"type":"Point","coordinates":[696405.4887005675,5370417.206762427]},"properties":{"name":"LUC","freq":"113.000","type":"vor","uuid":"vor-luc"}},{"type":"Feature","geometry":{"type":"Point","coordinates":[700821.069069125,6055151.159208487]},"properties":{"name":"LUL","freq":"117.100","type":"vor","uuid":"vor-lul"}},{"type":"Feature","geometry":{"type":"Point","coordinates":[695443.7810663559,6384080.866008263]},"properties":{"name":"LUX","freq":"112.250","type":"vor","uuid":"vor-lux"}},{"type":"Feature","geometry":{"type":"Point","coordinates":[707670.3408830696,6070857.052191124]},"properties":{"name":"LXI","freq":"108.200","type":"vor","uuid":"vor-lxi"}},{"type":"Feature","geometry":{"type":"Point","coordinates":[97812.07654666009,6621238.15048246]},"properties":{"name":"LYD","freq":"114.050","type":"vor","uuid":"vor-lyd"}},{"type":"Feature","geometry":{"type":"Point","coordinates":[663510.5791711552,6616332.4212084245]},"properties":{"name":"MAS","freq":"108.600","type":"vor","uuid":"vor-mas"}},{"type":"Feature","geometry":{"type":"Point","coordinates":[12926.635725480359,6624333.720181624]},"properties":{"name":"MAY","freq":"117.900","type":"vor","uuid":"vor-may"}},{"type":"Feature","geometry":{"type":"Point","coordinates":[-56142.06801257941,5451512.189553389]},"properties":{"name":"MDM","freq":"108.700","type":"vor","uuid":"vor-mdm"}},{"type":"Feature","geometry":{"type":"Point","coordinates":[352038.64393157564,5560075.20346583]},"properties":{"name":"MEN","freq":"115.300","type":"vor","uuid":"vor-men"}},{"type":"Feature","geometry":{"type":"Point","coordinates":[469357.0183953757,4846142.326708134]},"properties":{"name":"MHN","freq":"112.600","type":"vor","uuid":"vor-mhn"}},{"type":"Feature","geometry":{"type":"Point","coordinates":[-69574.99096660374,6630842.899050223]},"properties":{"name":"MID","freq":"114.000","type":"vor","uuid":"vor-mid"}},{"type":"Feature","geometry":{"type":"Point","coordinates":[307053.2008187828,4784202.469517516]},"properties":{"name":"MJV","freq":"113.300","type":"vor","uuid":"vor-mjv"}},{"type":"Feature","geometry":{"type":"Point","coordinates":[18395.545853588457,5031473.923667854]},"properties":{"name":"MLA","freq":"112.100","type":"vor","uuid":"vor-mla"}},{"type":"Feature","geometry":{"type":"Point","coordinates":[313172.6496822544,6183017.758993773]},"properties":{"name":"MLN","freq":"113.600","type":"vor","uuid":"vor-mln"}},{"type":"Feature","geometry":{"type":"Point","coordinates":[570447.4848679784,6341510.928418901]},"properties":{"name":"MMD","freq":"109.400","type":"vor","uuid":"vor-mmd"}},{"type":"Feature","geometry":{"type":"Point","coordinates":[972357.1369866175,5722969.297031918]},"properties":{"name":"MMP","freq":"113.350","type":"vor","uuid":"vor-mmp"}},{"type":"Feature","geometry":{"type":"Point","coordinates":[947994.6499719442,6355099.570309875]},"properties":{"name":"MND","freq":"113.550","type":"vor","uuid":"vor-mnd"}},{"type":"Feature","geometry":{"type":"Point","coordinates":[-1005610.8354192727,4680041.923294681]},"properties":{"name":"MOJ","freq":"110.000","type":"vor","uuid":"vor-moj"}},{"type":"Feature","geometry":{"type":"Point","coordinates":[404275.3149863193,5894343.389329477]},"properties":{"name":"MOU","freq":"116.700","type":"vor","uuid":"vor-mou"}},{"type":"Feature","geometry":{"type":"Point","coordinates":[592937.021450055,5369583.245401713]},"properties":{"name":"MRM","freq":"108.800","type":"vor","uuid":"vor-mrm"}},{"type":"Feature","geometry":{"type":"Point","coordinates":[566263.6345727555,5370957.607084736]},"properties":{"name":"MTG","freq":"117.300","type":"vor","uuid":"vor-mtg"}},{"type":"Feature","geometry":{"type":"Point","coordinates":[532091.6740293789,5551726.533014736]},"properties":{"name":"MTL","freq":"113.650","type":"vor","uuid":"vor-mtl"}},{"type":"Feature","geometry":{"type":"Point","coordinates":[-989645.7341925899,4841647.473716111]},"properties":{"name":"MTR","freq":"109.600","type":"vor","uuid":"vor-mtr"}},{"type":"Feature","geometry":{"type":"Point","coordinates":[662554.9941089372,6204506.666842928]},"properties":{"name":"NAY","freq":"116.800","type":"vor","uuid":"vor-nay"}},{"type":"Feature","geometry":{"type":"Point","coordinates":[1108830.5036078622,6341890.99598562]},"properties":{"name":"NDD","freq":"108.700","type":"vor","uuid":"vor-ndd"}},{"type":"Feature","geometry":{"type":"Point","coordinates":[-457427.24870994897,5165116.310705524]},"properties":{"name":"NEA","freq":"116.750","type":"vor","uuid":"vor-nea"}},{"type":"Feature","geometry":{"type":"Point","coordinates":[491760.065917522,5429284.138822551]},"properties":{"name":"NG","freq":"109.550","type":"vor","uuid":"vor-ng"}},{"type":"Feature","geometry":{"type":"Point","coordinates":[807554.8771274928,5430016.35836784]},"properties":{"name":"NIZ","freq":"112.400","type":"vor","uuid":"vor-niz"}},{"type":"Feature","geometry":{"type":"Point","coordinates":[978952.8168161189,5688533.559851757]},"properties":{"name":"NOV","freq":"111.650","type":"vor","uuid":"vor-nov"}},{"type":"Feature","geometry":{"type":"Point","coordinates":[-881050.4477935933,4802881.070136742]},"properties":{"name":"NSA","freq":"115.500","type":"vor","uuid":"vor-nsa"}},{"type":"Feature","geometry":{"type":"Point","coordinates":[-179555.21551939193,5968370.294588767]},"properties":{"name":"NTS","freq":"115.500","type":"vor","uuid":"vor-nts"}},{"type":"Feature","geometry":{"type":"Point","coordinates":[-540001.6041360181,5116941.414251567]},"properties":{"name":"NUB","freq":"113.650","type":"vor","uuid":"vor-nub"}},{"type":"Feature","geometry":{"type":"Point","coordinates":[738775.7895979801,6589986.672375243]},"properties":{"name":"NVO","freq":"116.200","type":"vor","uuid":"vor-nvo"}},{"type":"Feature","geometry":{"type":"Point","coordinates":[-473042.93042386405,4919661.476088735]},"properties":{"name":"NVS","freq":"114.950","type":"vor","uuid":"vor-nvs"}},{"type":"Feature","geometry":{"type":"Point","coordinates":[541686.8575383051,5487025.450991959]},"properties":{"name":"ORG","freq":"109.400","type":"vor","uuid":"vor-org"}},{"type":"Feature","geometry":{"type":"Point","coordinates":[-962177.6498393496,4995700.638970109]},"properties":{"name":"OVR","freq":"110.600","type":"vor","uuid":"vor-ovr"}},{"type":"Feature","geometry":{"type":"Point","coordinates":[-184876.93654300665,5264661.095262735]},"properties":{"name":"PAP","freq":"113.550","type":"vor","uuid":"vor-pap"}},{"type":"Feature","geometry":{"type":"Point","coordinates":[667907.6990574894,5806620.1970885005]},"properties":{"name":"PAS","freq":"116.600","type":"vor","uuid":"vor-pas"}},{"type":"Feature","geometry":{"type":"Point","coordinates":[-372700.7473839575,4902763.835653716]},"properties":{"name":"PDT","freq":"116.950","type":"vor","uuid":"vor-pdt"}},{"type":"Feature","geometry":{"type":"Point","coordinates":[759103.0687597203,5860368.0745583065]},"properties":{"name":"PEL","freq":"111.850","type":"vor","uuid":"vor-pel"}},{"type":"Feature","geometry":{"type":"Point","coordinates":[292080.7293070875,6274771.794502036]},"properties":{"name":"PGS","freq":"117.050","type":"vor","uuid":"vor-pgs"}},{"type":"Feature","geometry":{"type":"Point","coordinates":[1082118.1549087854,5608569.131126294]},"properties":{"name":"PIA","freq":"117.400","type":"vor","uuid":"vor-pia"}},{"type":"Feature","geometry":{"type":"Point","coordinates":[1161321.9726081993,5422256.075886663]},"properties":{"name":"PIN","freq":"108.300","type":"vor","uuid":"vor-pin"}},{"type":"Feature","geometry":{"type":"Point","coordinates":[1156782.7039165383,5415528.276194771]},"properties":{"name":"PIS","freq":"112.100","type":"vor","uuid":"vor-pis"}},{"type":"Feature","geometry":{"type":"Point","coordinates":[33194.79186877711,5873948.778725099]},"properties":{"name":"POI","freq":"113.300","type":"vor","uuid":"vor-poi"}},{"type":"Feature","geometry":{"type":"Point","coordinates":[226634.11442279458,6291180.384485124]},"properties":{"name":"PON","freq":"111.600","type":"vor","uuid":"vor-pon"}},{"type":"Feature","geometry":{"type":"Point","coordinates":[346713.7688557218,4855404.218173593]},"properties":{"name":"POS","freq":"116.400","type":"vor","uuid":"vor-pos"}},{"type":"Feature","geometry":{"type":"Point","coordinates":[319168.4411447033,5274067.928219065]},"properties":{"name":"PPG","freq":"116.250","type":"vor","uuid":"vor-ppg"}},{"type":"Feature","geometry":{"type":"Point","coordinates":[-189465.74240807086,5271533.290569358]},"properties":{"name":"PPN","freq":"112.300","type":"vor","uuid":"vor-ppn"}},{"type":"Feature","geometry":{"type":"Point","coordinates":[231751.6878691269,5054190.559579334]},"properties":{"name":"PRA","freq":"114.300","type":"vor","uuid":"vor-pra"}},{"type":"Feature","geometry":{"type":"Point","coordinates":[-967125.1209193338,5052692.878185799]},"properties":{"name":"PRT","freq":"114.100","type":"vor","uuid":"vor-prt"}},{"type":"Feature","geometry":{"type":"Point","coordinates":[35037.778805102076,5876144.551699748]},"properties":{"name":"PT","freq":"110.950","type":"vor","uuid":"vor-pt"}},{"type":"Feature","geometry":{"type":"Point","coordinates":[-465841.11596699327,6099750.319997453]},"properties":{"name":"QPR","freq":"117.800","type":"vor","uuid":"vor-qpr"}},{"type":"Feature","geometry":{"type":"Point","coordinates":[-361414.18790075066,4990810.008094712]},"properties":{"name":"RBO","freq":"113.950","type":"vor","uuid":"vor-rbo"}},{"type":"Feature","geometry":{"type":"Point","coordinates":[221995.77138432747,6216345.606904733]},"properties":{"name":"RBT","freq":"114.700","type":"vor","uuid":"vor-rbt"}},{"type":"Feature","geometry":{"type":"Point","coordinates":[450327.50804171956,6327906.379898582]},"properties":{"name":"REM","freq":"112.300","type":"vor","uuid":"vor-rem"}},{"type":"Feature","geometry":{"type":"Point","coordinates":[-193881.47738703227,6118383.263187493]},"properties":{"name":"REN","freq":"109.250","type":"vor","uuid":"vor-ren"}},{"type":"Feature","geometry":{"type":"Point","coordinates":[129350.1251716255,5033576.187022172]},"properties":{"name":"RES","freq":"116.850","type":"vor","uuid":"vor-res"}},{"type":"Feature","geometry":{"type":"Point","coordinates":[950833.8535846266,6408554.219037075]},"properties":{"name":"RID","freq":"112.200","type":"vor","uuid":"vor-rid"}},{"type":"Feature","geometry":{"type":"Point","coordinates":[584334.5913444392,6091281.594493273]},"properties":{"name":"RLP","freq":"117.300","type":"vor","uuid":"vor-rlp"}},{"type":"Feature","geometry":{"type":"Point","coordinates":[844431.0045568034,6348950.978884718]},"properties":{"name":"RMS","freq":"113.400","type":"vor","uuid":"vor-rms"}},{"type":"Feature","geometry":{"type":"Point","coordinates":[445197.56576307694,5789835.839419892]},"properties":{"name":"ROA","freq":"110.400","type":"vor","uuid":"vor-roa"}},{"type":"Feature","geometry":{"type":"Point","coordinates":[142560.06900117476,6354243.096286815]},"properties":{"name":"ROU","freq":"116.800","type":"vor","uuid":"vor-rou"}},{"type":"Feature","geometry":{"type":"Point","coordinates":[792156.9487064017,6310988.224026701]},"properties":{"name":"SAD","freq":"116.750","type":"vor","uuid":"vor-sad"}},{"type":"Feature","geometry":{"type":"Point","coordinates":[568041.7469836127,5405567.601633176]},"properties":{"name":"SAL","freq":"115.150","type":"vor","uuid":"vor-sal"}},{"type":"Feature","geometry":{"type":"Point","coordinates":[-149730.93045518894,6613381.730883349]},"properties":{"name":"SAM","freq":"113.350","type":"vor","uuid":"vor-sam"}},{"type":"Feature","geometry":{"type":"Point","coordinates":[829104.4442981431,6240359.731614017]},"properties":{"name":"SAV","freq":"110.450","type":"vor","uuid":"vor-sav"}},{"type":"Feature","geometry":{"type":"Point","coordinates":[1106392.0501620357,5477142.077141812]},"properties":{"name":"SAZ","freq":"111.100","type":"vor","uuid":"vor-saz"}},{"type":"Feature","geometry":{"type":"Point","coordinates":[816939.6667988198,5739671.99778205]},"properties":{"name":"SCS","freq":"109.250","type":"vor","uuid":"vor-scs"}},{"type":"Feature","geometry":{"type":"Point","coordinates":[544262.574100696,6213490.849142373]},"properties":{"name":"SDI","freq":"114.000","type":"vor","uuid":"vor-sdi"}},{"type":"Feature","geometry":{"type":"Point","coordinates":[982242.9880548373,5530254.175087158]},"properties":{"name":"SES","freq":"108.600","type":"vor","uuid":"vor-ses"}},{"type":"Feature","geometry":{"type":"Point","coordinates":[13571.392031738846,6579071.031730879]},"properties":{"name":"SFD","freq":"117.000","type":"vor","uuid":"vor-sfd"}},{"type":"Feature","geometry":{"type":"Point","coordinates":[1026822.764389931,6222077.44073659]},"properties":{"name":"SGD","freq":"115.450","type":"vor","uuid":"vor-sgd"}},{"type":"Feature","geometry":{"type":"Point","coordinates":[1088499.3282639445,6294646.883770321]},"properties":{"name":"SHD","freq":"108.050","type":"vor","uuid":"vor-shd"}},{"type":"Feature","geometry":{"type":"Point","coordinates":[-401269.6887349009,5034742.291288299]},"properties":{"name":"SIE","freq":"115.400","type":"vor","uuid":"vor-sie"}},{"type":"Feature","geometry":{"type":"Point","coordinates":[811383.0307275504,5814950.710498297]},"properties":{"name":"SIO","freq":"112.150","type":"vor","uuid":"vor-sio"}},{"type":"Feature","geometry":{"type":"Point","coordinates":[899295.7123346108,6569587.529332447]},"properties":{"name":"SLD","freq":"108.050","type":"vor","uuid":"vor-sld"}},{"type":"Feature","geometry":{"type":"Point","coordinates":[234856.2957011089,5089326.076143858]},"properties":{"name":"SLL","freq":"112.000","type":"vor","uuid":"vor-sll"}},{"type":"Feature","geometry":{"type":"Point","coordinates":[1057677.4041076682,4996138.424686348]},"properties":{"name":"SME","freq":"113.900","type":"vor","uuid":"vor-sme"}},{"type":"Feature","geometry":{"type":"Point","coordinates":[-434415.06711859815,5380685.128268911]},"properties":{"name":"SNR","freq":"115.300","type":"vor","uuid":"vor-snr"}},{"type":"Feature","geometry":{"type":"Point","coordinates":[745582.419862535,6442637.352574794]},"properties":{"name":"SPA","freq":"109.500","type":"vor","uuid":"vor-spa"}},{"type":"Feature","geometry":{"type":"Point","coordinates":[626017.4943862036,6535898.444064435]},"properties":{"name":"SPI","freq":"113.100","type":"vor","uuid":"vor-spi"}},{"type":"Feature","geometry":{"type":"Point","coordinates":[-32670.353378817683,6592353.786705699]},"properties":{"name":"SRH","freq":"109.950","type":"vor","uuid":"vor-srh"}},{"type":"Feature","geometry":{"type":"Point","coordinates":[1004278.0009715889,5723796.351214331]},"properties":{"name":"SRN","freq":"113.700","type":"vor","uuid":"vor-srn"}},{"type":"Feature","geometry":{"type":"Point","coordinates":[304263.9672886342,4802162.9825450545]},"properties":{"name":"SSJ","freq":"108.400","type":"vor","uuid":"vor-ssj"}},{"type":"Feature","geometry":{"type":"Point","coordinates":[-203757.9590647769,5359459.323374683]},"properties":{"name":"SSN","freq":"117.900","type":"vor","uuid":"vor-ssn"}},{"type":"Feature","geometry":{"type":"Point","coordinates":[-397988.76319833455,4945666.728468983]},"properties":{"name":"SSY","freq":"117.850","type":"vor","uuid":"vor-ssy"}},{"type":"Feature","geometry":{"type":"Point","coordinates":[-937910.000846416,5300845.937659365]},"properties":{"name":"STG","freq":"116.400","type":"vor","uuid":"vor-stg"}},{"type":"Feature","geometry":{"type":"Point","coordinates":[1030434.0923595879,6223507.642502129]},"properties":{"name":"STG","freq":"116.850","type":"vor","uuid":"vor-stg"}},{"type":"Feature","geometry":{"type":"Point","coordinates":[734909.6636827297,5345437.602291326]},"properties":{"name":"STP","freq":"116.500","type":"vor","uuid":"vor-stp"}},{"type":"Feature","geometry":{"type":"Point","coordinates":[842908.0611565091,6191349.185087236]},"properties":{"name":"STR","freq":"115.600","type":"vor","uuid":"vor-str"}},{"type":"Feature","geometry":{"type":"Point","coordinates":[962338.7229581114,6170573.535478784]},"properties":{"name":"SUL","freq":"116.100","type":"vor","uuid":"vor-sul"}},{"type":"Feature","geometry":{"type":"Point","coordinates":[1046353.7690496107,5151617.641552879]},"properties":{"name":"SZA","freq":"114.000","type":"vor","uuid":"vor-sza"}},{"type":"Feature","geometry":{"type":"Point","coordinates":[-207437.62483294855,4713899.686339856]},"properties":{"name":"TAB","freq":"108.000","type":"vor","uuid":"vor-tab"}},{"type":"Feature","geometry":{"type":"Point","coordinates":[908648.1265873654,6489765.2942861505]},"properties":{"name":"TAU","freq":"113.350","type":"vor","uuid":"vor-tau"}},{"type":"Feature","geometry":{"type":"Point","coordinates":[-759050.5321444821,4706157.625154648]},"properties":{"name":"TBC","freq":"108.800","type":"vor","uuid":"vor-tbc"}},{"type":"Feature","geometry":{"type":"Point","coordinates":[16224.784861038846,5362676.905608454]},"properties":{"name":"TBO","freq":"113.900","type":"vor","uuid":"vor-tbo"}},{"type":"Feature","geometry":{"type":"Point","coordinates":[-164279.7076160927,5190518.224672959]},"properties":{"name":"TBR","freq":"108.600","type":"vor","uuid":"vor-tbr"}},{"type":"Feature","geometry":{"type":"Point","coordinates":[1030730.2949713405,6210359.478254169]},"properties":{"name":"TGO","freq":"112.500","type":"vor","uuid":"vor-tgo"}},{"type":"Feature","geometry":{"type":"Point","coordinates":[395583.0253139689,5761433.01900386]},"properties":{"name":"TIS","freq":"117.500","type":"vor","uuid":"vor-tis"}},{"type":"Feature","geometry":{"type":"Point","coordinates":[-383551.30552822415,4938706.516227582]},"properties":{"name":"TJZ","freq":"112.500","type":"vor","uuid":"vor-tjz"}},{"type":"Feature","geometry":{"type":"Point","coordinates":[-482835.9224835137,4861507.016853022]},"properties":{"name":"TLD","freq":"113.200","type":"vor","uuid":"vor-tld"}},{"type":"Feature","geometry":{"type":"Point","coordinates":[875156.7610418664,5609787.542723994]},"properties":{"name":"TOP","freq":"114.500","type":"vor","uuid":"vor-top"}},{"type":"Feature","geometry":{"type":"Point","coordinates":[145806.91840472602,5416182.441349697]},"properties":{"name":"TOU","freq":"117.700","type":"vor","uuid":"vor-tou"}},{"type":"Feature","geometry":{"type":"Point","coordinates":[939199.4206926908,6055353.277541726]},"properties":{"name":"TRA","freq":"114.300","type":"vor","uuid":"vor-tra"}},{"type":"Feature","geometry":{"type":"Point","coordinates":[441174.6030541311,6148751.443290618]},"properties":{"name":"TRO","freq":"116.000","type":"vor","uuid":"vor-tro"}},{"type":"Feature","geometry":{"type":"Point","coordinates":[-612532.3749598295,5005739.152719725]},"properties":{"name":"TSC","freq":"113.300","type":"vor","uuid":"vor-tsc"}},{"type":"Feature","geometry":{"type":"Point","coordinates":[234033.73743038895,6233176.008695258]},"properties":{"name":"TSU","freq":"108.250","type":"vor","uuid":"vor-tsu"}},{"type":"Feature","geometry":{"type":"Point","coordinates":[1058314.368049571,5709993.40469252]},"properties":{"name":"TZO","freq":"117.250","type":"vor","uuid":"vor-tzo"}},{"type":"Feature","geometry":{"type":"Point","coordinates":[-116615.82478857135,5111549.908118266]},"properties":{"name":"TZZ","freq":"113.500","type":"vor","uuid":"vor-tzz"}},{"type":"Feature","geometry":{"type":"Point","coordinates":[-206976.97859562986,4714098.482291156]},"properties":{"name":"VAB","freq":"115.800","type":"vor","uuid":"vor-vab"}},{"type":"Feature","geometry":{"type":"Point","coordinates":[-758728.911582332,4705907.338725699]},"properties":{"name":"VBZ","freq":"116.800","type":"vor","uuid":"vor-vbz"}},{"type":"Feature","geometry":{"type":"Point","coordinates":[-668705.3959752655,5397149.480691161]},"properties":{"name":"VES","freq":"112.400","type":"vor","uuid":"vor-ves"}},{"type":"Feature","geometry":{"type":"Point","coordinates":[-303274.46070380515,5293821.479885295]},"properties":{"name":"VFD","freq":"112.900","type":"vor","uuid":"vor-vfd"}},{"type":"Feature","geometry":{"type":"Point","coordinates":[943011.7731094718,6439667.707099388]},"properties":{"name":"VFM","freq":"113.750","type":"vor","uuid":"vor-vfm"}},{"type":"Feature","geometry":{"type":"Point","coordinates":[-414795.00686628366,4908149.809977619]},"properties":{"name":"VGE","freq":"112.050","type":"vor","uuid":"vor-vge"}},{"type":"Feature","geometry":{"type":"Point","coordinates":[-957530.0610987307,5209231.676263209]},"properties":{"name":"VGO","freq":"113.600","type":"vor","uuid":"vor-vgo"}},{"type":"Feature","geometry":{"type":"Point","coordinates":[-877846.8893031281,4971630.925861451]},"properties":{"name":"VIS","freq":"113.100","type":"vor","uuid":"vor-vis"}},{"type":"Feature","geometry":{"type":"Point","coordinates":[172288.4956149724,5063012.945600684]},"properties":{"name":"VLA","freq":"113.150","type":"vor","uuid":"vor-vla"}},{"type":"Feature","geometry":{"type":"Point","coordinates":[-53773.52939138709,4791475.8474789085]},"properties":{"name":"VLC","freq":"116.100","type":"vor","uuid":"vor-vlc"}},{"type":"Feature","geometry":{"type":"Point","coordinates":[-293743.0694475196,6622180.129007823]},"properties":{"name":"VLN","freq":"111.000","type":"vor","uuid":"vor-vln"}},{"type":"Feature","geometry":{"type":"Point","coordinates":[998557.4160280456,5615947.491656964]},"properties":{"name":"VOG","freq":"110.450","type":"vor","uuid":"vor-vog"}},{"type":"Feature","geometry":{"type":"Point","coordinates":[-318995.2156481967,5271251.23392922]},"properties":{"name":"VRA","freq":"116.600","type":"vor","uuid":"vor-vra"}},{"type":"Feature","geometry":{"type":"Point","coordinates":[-385613.8083159773,4834132.391483046]},"properties":{"name":"VTB","freq":"112.700","type":"vor","uuid":"vor-vtb"}},{"type":"Feature","geometry":{"type":"Point","coordinates":[-386504.36424232344,4935299.377006449]},"properties":{"name":"VTZ","freq":"115.100","type":"vor","uuid":"vor-vtz"}},{"type":"Feature","geometry":{"type":"Point","coordinates":[1090389.8733605025,5915115.444670118]},"properties":{"name":"WFJ","freq":"113.750","type":"vor","uuid":"vor-wfj"}},{"type":"Feature","geometry":{"type":"Point","coordinates":[925153.6839418495,6454260.057438843]},"properties":{"name":"WIB","freq":"114.100","type":"vor","uuid":"vor-wib"}},{"type":"Feature","geometry":{"type":"Point","coordinates":[880070.2796771585,5971235.849281763]},"properties":{"name":"WIL","freq":"116.900","type":"vor","uuid":"vor-wil"}},{"type":"Feature","geometry":{"type":"Point","coordinates":[742447.7866901194,6592244.502203175]},"properties":{"name":"WNN","freq":"109.850","type":"vor","uuid":"vor-wnn"}},{"type":"Feature","geometry":{"type":"Point","coordinates":[810405.552832143,6629851.2301794905]},"properties":{"name":"WYP","freq":"109.600","type":"vor","uuid":"vor-wyp"}},{"type":"Feature","geometry":{"type":"Point","coordinates":[-295444.0312668408,6610815.84232341]},"properties":{"name":"YVL","freq":"109.050","type":"vor","uuid":"vor-yvl"}},{"type":"Feature","geometry":{"type":"Point","coordinates":[-114754.90304539632,5109869.822538676]},"properties":{"name":"ZAR","freq":"113.000","type":"vor","uuid":"vor-zar"}},{"type":"Feature","geometry":{"type":"Point","coordinates":[-627807.8519410477,5090862.502485582]},"properties":{"name":"ZMR","freq":"117.100","type":"vor","uuid":"vor-zmr"}},{"type":"Feature","geometry":{"type":"Point","coordinates":[372496.599806675,5361184.882795576]},"properties":{"name":"ZR","freq":"109.350","type":"vor","uuid":"vor-zr"}},{"type":"Feature","geometry":{"type":"Point","coordinates":[981578.194240236,6039272.159095621]},"properties":{"name":"ZUE","freq":"110.050","type":"vor","uuid":"vor-zue"}},{"type":"Feature","geometry":{"type":"Point","coordinates":[825755.9540150815,6313819.872677367]},"properties":{"name":"ZWN","freq":"114.800","type":"vor","uuid":"vor-zwn"}}]}